{"type": "FeatureCollection", "features": [{"type": "Feature", "geometry": {"type": "Polygon", "coordinates": [[[18.426, 49.793], [18.426, 49.793], [18.419, 49.791], [18.413, 49.789], [18.419, 49.786], [18.422, 49.785], [18.42, 49.785], [18.419, 49.783], [18.417, 49.782], [18.414, 49.782], [18.414, 49.784], [18.41, 49.786], [18.4, 49.786], [18.405, 49.79], [18.414, 49.793], [18.426, 49.793]]]}, "properties": {"kod": "2453", "cislo": 1, "kod_obec": "555088", "naz_obec": "Havířov"}}, {"type": "Feature", "geometry": {"type": "Polygon", "coordinates": [[[18.419, 49.783], [18.42, 49.785], [18.422, 49.785], [18.426, 49.783], [18.426, 49.782], [18.424, 49.783], [18.421, 49.783], [18.422, 49.784], [18.421, 49.784], [18.421, 49.783], [18.42, 49.782], [18.419, 49.783]]]}, "properties": {"kod": "2455", "cislo": 2, "kod_obec": "555088", "naz_obec": "Havířov"}}, {"type": "Feature", "geometry": {"type": "Polygon", "coordinates": [[[18.424, 49.783], [18.423, 49.782], [18.426, 49.781], [18.424, 49.78], [18.42, 49.782], [18.421, 49.783], [18.421, 49.784], [18.422, 49.784], [18.421, 49.783], [18.424, 49.783]]]}, "properties": {"kod": "2457", "cislo": 3, "kod_obec": "555088", "naz_obec": "Havířov"}}, {"type": "Feature", "geometry": {"type": "Polygon", "coordinates": [[[18.426, 49.782], [18.428, 49.781], [18.426, 49.779], [18.428, 49.779], [18.427, 49.778], [18.424, 49.78], [18.426, 49.781], [18.423, 49.782], [18.424, 49.783], [18.426, 49.782]]]}, "properties": {"kod": "2459", "cislo": 4, "kod_obec": "555088", "naz_obec": "Havířov"}}, {"type": "Feature", "geometry": {"type": "Polygon", "coordinates": [[[18.428, 49.781], [18.429, 49.781], [18.43, 49.78], [18.43, 49.78], [18.428, 49.779], [18.426, 49.779], [18.428, 49.781]]]}, "properties": {"kod": "2461", "cislo": 5, "kod_obec": "555088", "naz_obec": "Havířov"}}, {"type": "Feature", "geometry": {"type": "Polygon", "coordinates": [[[18.426, 49.787], [18.426, 49.784], [18.421, 49.787], [18.419, 49.786], [18.413, 49.789], [18.419, 49.791], [18.42, 49.787], [18.426, 49.787]]]}, "properties": {"kod": "2463", "cislo": 6, "kod_obec": "555088", "naz_obec": "Havířov"}}, {"type": "Feature", "geometry": {"type": "Polygon", "coordinates": [[[18.429, 49.785], [18.426, 49.783], [18.426, 49.784], [18.426, 49.787], [18.429, 49.785]]]}, "properties": {"kod": "2465", "cislo": 7, "kod_obec": "555088", "naz_obec": "Havířov"}}, {"type": "Feature", "geometry": {"type": "Polygon", "coordinates": [[[18.426, 49.784], [18.426, 49.783], [18.426, 49.783], [18.422, 49.785], [18.419, 49.786], [18.421, 49.787], [18.426, 49.784]]]}, "properties": {"kod": "2467", "cislo": 8, "kod_obec": "555088", "naz_obec": "Havířov"}}, {"type": "Feature", "geometry": {"type": "Polygon", "coordinates": [[[18.431, 49.784], [18.428, 49.781], [18.426, 49.782], [18.426, 49.783], [18.426, 49.783], [18.429, 49.785], [18.431, 49.784]]]}, "properties": {"kod": "2469", "cislo": 9, "kod_obec": "555088", "naz_obec": "Havířov"}}, {"type": "Feature", "geometry": {"type": "Polygon", "coordinates": [[[18.431, 49.784], [18.433, 49.783], [18.429, 49.781], [18.428, 49.781], [18.431, 49.784]]]}, "properties": {"kod": "2471", "cislo": 10, "kod_obec": "555088", "naz_obec": "Havířov"}}, {"type": "Feature", "geometry": {"type": "Polygon", "coordinates": [[[18.433, 49.783], [18.433, 49.783], [18.43, 49.78], [18.43, 49.78], [18.429, 49.781], [18.433, 49.783]]]}, "properties": {"kod": "2473", "cislo": 11, "kod_obec": "555088", "naz_obec": "Havířov"}}, {"type": "Feature", "geometry": {"type": "Polygon", "coordinates": [[[18.432, 49.779], [18.432, 49.778], [18.43, 49.777], [18.427, 49.778], [18.428, 49.779], [18.43, 49.78], [18.432, 49.779]]]}, "properties": {"kod": "2475", "cislo": 12, "kod_obec": "555088", "naz_obec": "Havířov"}}, {"type": "Feature", "geometry": {"type": "Polygon", "coordinates": [[[18.436, 49.777], [18.436, 49.777], [18.433, 49.775], [18.43, 49.777], [18.432, 49.778], [18.434, 49.776], [18.436, 49.777]]]}, "properties": {"kod": "2477", "cislo": 13, "kod_obec": "555088", "naz_obec": "Havířov"}}, {"type": "Feature", "geometry": {"type": "Polygon", "coordinates": [[[18.432, 49.779], [18.436, 49.777], [18.434, 49.776], [18.432, 49.778], [18.432, 49.779]]]}, "properties": {"kod": "2479", "cislo": 14, "kod_obec": "555088", "naz_obec": "Havířov"}}, {"type": "Feature", "geometry": {"type": "Polygon", "coordinates": [[[18.437, 49.776], [18.434, 49.774], [18.433, 49.775], [18.436, 49.777], [18.437, 49.776]]]}, "properties": {"kod": "2481", "cislo": 15, "kod_obec": "555088", "naz_obec": "Havířov"}}, {"type": "Feature", "geometry": {"type": "Polygon", "coordinates": [[[18.437, 49.776], [18.439, 49.775], [18.439, 49.775], [18.437, 49.773], [18.434, 49.774], [18.437, 49.776]]]}, "properties": {"kod": "2483", "cislo": 16, "kod_obec": "555088", "naz_obec": "Havířov"}}, {"type": "Feature", "geometry": {"type": "Polygon", "coordinates": [[[18.42, 49.782], [18.424, 49.78], [18.427, 49.778], [18.43, 49.777], [18.433, 49.775], [18.434, 49.774], [18.437, 49.773], [18.439, 49.775], [18.442, 49.774], [18.441, 49.772], [18.438, 49.773], [18.438, 49.772], [18.44, 49.771], [18.44, 49.77], [18.434, 49.769], [18.427, 49.776], [18.416, 49.781], [18.417, 49.782], [18.419, 49.783], [18.42, 49.782]]]}, "properties": {"kod": "2485", "cislo": 17, "kod_obec": "555088", "naz_obec": "Havířov"}}, {"type": "Feature", "geometry": {"type": "Polygon", "coordinates": [[[18.44, 49.771], [18.438, 49.772], [18.438, 49.773], [18.441, 49.772], [18.442, 49.774], [18.443, 49.773], [18.44, 49.771]]]}, "properties": {"kod": "2487", "cislo": 18, "kod_obec": "555088", "naz_obec": "Havířov"}}, {"type": "Feature", "geometry": {"type": "Polygon", "coordinates": [[[18.434, 49.769], [18.435, 49.768], [18.421, 49.767], [18.42, 49.765], [18.417, 49.766], [18.418, 49.768], [18.414, 49.773], [18.41, 49.775], [18.409, 49.779], [18.416, 49.781], [18.427, 49.776], [18.434, 49.769]]]}, "properties": {"kod": "2489", "cislo": 19, "kod_obec": "555088", "naz_obec": "Havířov"}}, {"type": "Feature", "geometry": {"type": "Polygon", "coordinates": [[[18.433, 49.783], [18.436, 49.781], [18.434, 49.779], [18.43, 49.78], [18.433, 49.783]]]}, "properties": {"kod": "2491", "cislo": 20, "kod_obec": "555088", "naz_obec": "Havířov"}}, {"type": "Feature", "geometry": {"type": "Polygon", "coordinates": [[[18.44, 49.782], [18.441, 49.781], [18.441, 49.78], [18.439, 49.779], [18.438, 49.781], [18.436, 49.777], [18.436, 49.777], [18.432, 49.779], [18.43, 49.78], [18.43, 49.78], [18.43, 49.78], [18.434, 49.779], [18.436, 49.781], [18.438, 49.783], [18.44, 49.782]]]}, "properties": {"kod": "2493", "cislo": 21, "kod_obec": "555088", "naz_obec": "Havířov"}}, {"type": "Feature", "geometry": {"type": "Polygon", "coordinates": [[[18.441, 49.78], [18.441, 49.778], [18.441, 49.778], [18.439, 49.778], [18.437, 49.776], [18.436, 49.777], [18.438, 49.781], [18.439, 49.779], [18.441, 49.78]]]}, "properties": {"kod": "2495", "cislo": 22, "kod_obec": "555088", "naz_obec": "Havířov"}}, {"type": "Feature", "geometry": {"type": "Polygon", "coordinates": [[[18.441, 49.778], [18.441, 49.778], [18.439, 49.775], [18.437, 49.776], [18.439, 49.778], [18.441, 49.778]]]}, "properties": {"kod": "2497", "cislo": 23, "kod_obec": "555088", "naz_obec": "Havířov"}}, {"type": "Feature", "geometry": {"type": "Polygon", "coordinates": [[[18.439, 49.775], [18.441, 49.778], [18.439, 49.775], [18.445, 49.775], [18.443, 49.773], [18.442, 49.774], [18.439, 49.775], [18.439, 49.775]]]}, "properties": {"kod": "2499", "cislo": 24, "kod_obec": "555088", "naz_obec": "Havířov"}}, {"type": "Feature", "geometry": {"type": "Polygon", "coordinates": [[[18.441, 49.778], [18.443, 49.777], [18.443, 49.776], [18.445, 49.775], [18.445, 49.775], [18.439, 49.775], [18.441, 49.778], [18.441, 49.778]]]}, "properties": {"kod": "2501", "cislo": 25, "kod_obec": "555088", "naz_obec": "Havířov"}}, {"type": "Feature", "geometry": {"type": "Polygon", "coordinates": [[[18.443, 49.777], [18.446, 49.777], [18.445, 49.775], [18.443, 49.776], [18.443, 49.777]]]}, "properties": {"kod": "2503", "cislo": 26, "kod_obec": "555088", "naz_obec": "Havířov"}}, {"type": "Feature", "geometry": {"type": "Polygon", "coordinates": [[[18.442, 49.78], [18.444, 49.78], [18.443, 49.778], [18.446, 49.778], [18.447, 49.78], [18.448, 49.779], [18.446, 49.777], [18.446, 49.777], [18.443, 49.777], [18.441, 49.778], [18.441, 49.778], [18.442, 49.78]]]}, "properties": {"kod": "2505", "cislo": 27, "kod_obec": "555088", "naz_obec": "Havířov"}}, {"type": "Feature", "geometry": {"type": "Polygon", "coordinates": [[[18.442, 49.781], [18.444, 49.78], [18.447, 49.78], [18.446, 49.778], [18.443, 49.778], [18.444, 49.78], [18.442, 49.78], [18.441, 49.778], [18.441, 49.78], [18.441, 49.781], [18.442, 49.781]]]}, "properties": {"kod": "2507", "cislo": 28, "kod_obec": "555088", "naz_obec": "Havířov"}}, {"type": "Feature", "geometry": {"type": "Polygon", "coordinates": [[[18.444, 49.784], [18.447, 49.781], [18.446, 49.781], [18.444, 49.782], [18.444, 49.78], [18.442, 49.781], [18.444, 49.784]]]}, "properties": {"kod": "2509", "cislo": 29, "kod_obec": "555088", "naz_obec": "Havířov"}}, {"type": "Feature", "geometry": {"type": "Polygon", "coordinates": [[[18.443, 49.784], [18.439, 49.786], [18.44, 49.788], [18.446, 49.786], [18.449, 49.784], [18.452, 49.783], [18.451, 49.782], [18.448, 49.779], [18.447, 49.78], [18.444, 49.78], [18.444, 49.782], [18.446, 49.781], [18.447, 49.781], [18.444, 49.784], [18.443, 49.784]]]}, "properties": {"kod": "2511", "cislo": 30, "kod_obec": "555088", "naz_obec": "Havířov"}}, {"type": "Feature", "geometry": {"type": "Polygon", "coordinates": [[[18.44, 49.782], [18.443, 49.784], [18.444, 49.784], [18.442, 49.781], [18.441, 49.781], [18.44, 49.782]]]}, "properties": {"kod": "2513", "cislo": 31, "kod_obec": "555088", "naz_obec": "Havířov"}}, {"type": "Feature", "geometry": {"type": "Polygon", "coordinates": [[[18.433, 49.783], [18.433, 49.783], [18.431, 49.784], [18.429, 49.785], [18.432, 49.787], [18.433, 49.787], [18.437, 49.786], [18.438, 49.787], [18.433, 49.783]]]}, "properties": {"kod": "2515", "cislo": 32, "kod_obec": "555088", "naz_obec": "Havířov"}}, {"type": "Feature", "geometry": {"type": "Polygon", "coordinates": [[[18.434, 49.788], [18.439, 49.789], [18.44, 49.788], [18.439, 49.786], [18.443, 49.784], [18.44, 49.782], [18.438, 49.783], [18.436, 49.781], [18.433, 49.783], [18.438, 49.787], [18.437, 49.786], [18.433, 49.787], [18.434, 49.788]]]}, "properties": {"kod": "2517", "cislo": 33, "kod_obec": "555088", "naz_obec": "Havířov"}}, {"type": "Feature", "geometry": {"type": "Polygon", "coordinates": [[[18.434, 49.788], [18.433, 49.787], [18.432, 49.787], [18.427, 49.789], [18.434, 49.788]]]}, "properties": {"kod": "2519", "cislo": 34, "kod_obec": "555088", "naz_obec": "Havířov"}}, {"type": "Feature", "geometry": {"type": "Polygon", "coordinates": [[[18.419, 49.791], [18.426, 49.793], [18.428, 49.792], [18.439, 49.789], [18.434, 49.788], [18.427, 49.789], [18.432, 49.787], [18.429, 49.785], [18.426, 49.787], [18.42, 49.787], [18.419, 49.791]]]}, "properties": {"kod": "2521", "cislo": 35, "kod_obec": "555088", "naz_obec": "Havířov"}}, {"type": "Feature", "geometry": {"type": "Polygon", "coordinates": [[[18.453, 49.768], [18.456, 49.769], [18.462, 49.768], [18.468, 49.768], [18.47, 49.764], [18.469, 49.761], [18.453, 49.768]]]}, "properties": {"kod": "2523", "cislo": 36, "kod_obec": "555088", "naz_obec": "Havířov"}}, {"type": "Feature", "geometry": {"type": "Polygon", "coordinates": [[[18.434, 49.769], [18.44, 49.77], [18.444, 49.769], [18.445, 49.769], [18.444, 49.764], [18.45, 49.758], [18.427, 49.757], [18.42, 49.765], [18.421, 49.767], [18.435, 49.768], [18.434, 49.769]]]}, "properties": {"kod": "2525", "cislo": 37, "kod_obec": "555088", "naz_obec": "Havířov"}}, {"type": "Feature", "geometry": {"type": "Polygon", "coordinates": [[[18.453, 49.768], [18.469, 49.761], [18.469, 49.758], [18.45, 49.758], [18.444, 49.764], [18.445, 49.769], [18.451, 49.769], [18.453, 49.768]]]}, "properties": {"kod": "2527", "cislo": 38, "kod_obec": "555088", "naz_obec": "Havířov"}}, {"type": "Feature", "geometry": {"type": "Polygon", "coordinates": [[[18.452, 49.783], [18.457, 49.782], [18.458, 49.784], [18.46, 49.783], [18.46, 49.78], [18.456, 49.78], [18.453, 49.778], [18.451, 49.778], [18.449, 49.78], [18.452, 49.781], [18.451, 49.782], [18.452, 49.783]]]}, "properties": {"kod": "2529", "cislo": 39, "kod_obec": "555088", "naz_obec": "Havířov"}}, {"type": "Feature", "geometry": {"type": "Polygon", "coordinates": [[[18.46, 49.78], [18.46, 49.778], [18.458, 49.777], [18.457, 49.777], [18.453, 49.778], [18.456, 49.78], [18.46, 49.78]]]}, "properties": {"kod": "2531", "cislo": 40, "kod_obec": "555088", "naz_obec": "Havířov"}}, {"type": "Feature", "geometry": {"type": "Polygon", "coordinates": [[[18.46, 49.783], [18.462, 49.783], [18.465, 49.779], [18.465, 49.773], [18.462, 49.774], [18.458, 49.777], [18.46, 49.778], [18.46, 49.78], [18.46, 49.783]]]}, "properties": {"kod": "2533", "cislo": 41, "kod_obec": "555088", "naz_obec": "Havířov"}}, {"type": "Feature", "geometry": {"type": "Polygon", "coordinates": [[[18.451, 49.778], [18.453, 49.778], [18.452, 49.776], [18.449, 49.776], [18.446, 49.777], [18.446, 49.777], [18.448, 49.778], [18.449, 49.777], [18.451, 49.778]]]}, "properties": {"kod": "2535", "cislo": 42, "kod_obec": "555088", "naz_obec": "Havířov"}}, {"type": "Feature", "geometry": {"type": "Polygon", "coordinates": [[[18.453, 49.778], [18.457, 49.777], [18.456, 49.775], [18.456, 49.775], [18.454, 49.775], [18.452, 49.776], [18.453, 49.778]]]}, "properties": {"kod": "2537", "cislo": 43, "kod_obec": "555088", "naz_obec": "Havířov"}}, {"type": "Feature", "geometry": {"type": "Polygon", "coordinates": [[[18.458, 49.777], [18.462, 49.774], [18.459, 49.774], [18.456, 49.775], [18.457, 49.777], [18.458, 49.777]]]}, "properties": {"kod": "2539", "cislo": 44, "kod_obec": "555088", "naz_obec": "Havířov"}}, {"type": "Feature", "geometry": {"type": "Polygon", "coordinates": [[[18.451, 49.782], [18.452, 49.781], [18.449, 49.78], [18.451, 49.778], [18.449, 49.777], [18.448, 49.778], [18.446, 49.777], [18.448, 49.779], [18.451, 49.782]]]}, "properties": {"kod": "2541", "cislo": 45, "kod_obec": "555088", "naz_obec": "Havířov"}}, {"type": "Feature", "geometry": {"type": "Polygon", "coordinates": [[[18.446, 49.777], [18.449, 49.776], [18.449, 49.773], [18.445, 49.775], [18.445, 49.775], [18.446, 49.777]]]}, "properties": {"kod": "2543", "cislo": 46, "kod_obec": "555088", "naz_obec": "Havířov"}}, {"type": "Feature", "geometry": {"type": "Polygon", "coordinates": [[[18.449, 49.773], [18.449, 49.776], [18.452, 49.776], [18.454, 49.775], [18.451, 49.773], [18.449, 49.773]]]}, "properties": {"kod": "2545", "cislo": 47, "kod_obec": "555088", "naz_obec": "Havířov"}}, {"type": "Feature", "geometry": {"type": "Polygon", "coordinates": [[[18.456, 49.775], [18.459, 49.774], [18.459, 49.773], [18.458, 49.772], [18.456, 49.773], [18.456, 49.775], [18.456, 49.775]]]}, "properties": {"kod": "2547", "cislo": 48, "kod_obec": "555088", "naz_obec": "Havířov"}}, {"type": "Feature", "geometry": {"type": "Polygon", "coordinates": [[[18.449, 49.773], [18.448, 49.772], [18.443, 49.772], [18.444, 49.769], [18.44, 49.77], [18.44, 49.771], [18.443, 49.773], [18.445, 49.775], [18.449, 49.773]]]}, "properties": {"kod": "2549", "cislo": 49, "kod_obec": "555088", "naz_obec": "Havířov"}}, {"type": "Feature", "geometry": {"type": "Polygon", "coordinates": [[[18.449, 49.773], [18.451, 49.773], [18.452, 49.773], [18.451, 49.771], [18.451, 49.769], [18.445, 49.769], [18.444, 49.769], [18.443, 49.772], [18.448, 49.772], [18.449, 49.773]]]}, "properties": {"kod": "2551", "cislo": 50, "kod_obec": "555088", "naz_obec": "Havířov"}}, {"type": "Feature", "geometry": {"type": "Polygon", "coordinates": [[[18.456, 49.77], [18.456, 49.769], [18.453, 49.768], [18.451, 49.769], [18.451, 49.771], [18.452, 49.772], [18.456, 49.77]]]}, "properties": {"kod": "2553", "cislo": 51, "kod_obec": "555088", "naz_obec": "Havířov"}}, {"type": "Feature", "geometry": {"type": "Polygon", "coordinates": [[[18.456, 49.77], [18.459, 49.771], [18.458, 49.772], [18.459, 49.773], [18.459, 49.771], [18.457, 49.77], [18.456, 49.77], [18.452, 49.772], [18.451, 49.771], [18.452, 49.773], [18.455, 49.772], [18.456, 49.77]]]}, "properties": {"kod": "2555", "cislo": 52, "kod_obec": "555088", "naz_obec": "Havířov"}}, {"type": "Feature", "geometry": {"type": "Polygon", "coordinates": [[[18.454, 49.775], [18.456, 49.775], [18.456, 49.773], [18.458, 49.772], [18.459, 49.771], [18.456, 49.77], [18.455, 49.772], [18.452, 49.773], [18.451, 49.773], [18.454, 49.775]]]}, "properties": {"kod": "2557", "cislo": 53, "kod_obec": "555088", "naz_obec": "Havířov"}}, {"type": "Feature", "geometry": {"type": "Polygon", "coordinates": [[[18.459, 49.774], [18.462, 49.774], [18.465, 49.773], [18.468, 49.768], [18.462, 49.768], [18.462, 49.77], [18.457, 49.77], [18.459, 49.771], [18.459, 49.773], [18.459, 49.774]]]}, "properties": {"kod": "2559", "cislo": 54, "kod_obec": "555088", "naz_obec": "Havířov"}}, {"type": "Feature", "geometry": {"type": "Polygon", "coordinates": [[[18.456, 49.77], [18.457, 49.77], [18.462, 49.77], [18.462, 49.768], [18.456, 49.769], [18.456, 49.77]]]}, "properties": {"kod": "2561", "cislo": 55, "kod_obec": "555088", "naz_obec": "Havířov"}}, {"type": "Feature", "geometry": {"type": "Polygon", "coordinates": [[[18.411, 49.798], [18.413, 49.797], [18.414, 49.793], [18.405, 49.79], [18.404, 49.791], [18.411, 49.793], [18.406, 49.795], [18.407, 49.796], [18.409, 49.795], [18.408, 49.797], [18.411, 49.798]]]}, "properties": {"kod": "2563", "cislo": 56, "kod_obec": "555088", "naz_obec": "Havířov"}}, {"type": "Feature", "geometry": {"type": "Polygon", "coordinates": [[[18.406, 49.795], [18.411, 49.793], [18.404, 49.791], [18.405, 49.795], [18.406, 49.795]]]}, "properties": {"kod": "2565", "cislo": 57, "kod_obec": "555088", "naz_obec": "Havířov"}}, {"type": "Feature", "geometry": {"type": "Polygon", "coordinates": [[[18.406, 49.797], [18.408, 49.797], [18.409, 49.795], [18.407, 49.796], [18.406, 49.795], [18.405, 49.795], [18.404, 49.791], [18.405, 49.79], [18.4, 49.786], [18.398, 49.785], [18.399, 49.787], [18.4, 49.79], [18.403, 49.792], [18.406, 49.797]]]}, "properties": {"kod": "2567", "cislo": 58, "kod_obec": "555088", "naz_obec": "Havířov"}}, {"type": "Feature", "geometry": {"type": "Polygon", "coordinates": [[[18.406, 49.797], [18.403, 49.792], [18.401, 49.792], [18.406, 49.796], [18.406, 49.797]]]}, "properties": {"kod": "2569", "cislo": 59, "kod_obec": "555088", "naz_obec": "Havířov"}}, {"type": "Feature", "geometry": {"type": "Polygon", "coordinates": [[[18.4, 49.797], [18.406, 49.796], [18.401, 49.792], [18.4, 49.794], [18.4, 49.797]]]}, "properties": {"kod": "2571", "cislo": 60, "kod_obec": "555088", "naz_obec": "Havířov"}}, {"type": "Feature", "geometry": {"type": "Polygon", "coordinates": [[[18.403, 49.801], [18.407, 49.801], [18.411, 49.8], [18.411, 49.798], [18.408, 49.797], [18.406, 49.797], [18.406, 49.796], [18.4, 49.797], [18.398, 49.798], [18.398, 49.798], [18.398, 49.799], [18.402, 49.799], [18.403, 49.801]]]}, "properties": {"kod": "2573", "cislo": 61, "kod_obec": "555088", "naz_obec": "Havířov"}}, {"type": "Feature", "geometry": {"type": "Polygon", "coordinates": [[[18.4, 49.794], [18.398, 49.798], [18.4, 49.797], [18.4, 49.794]]]}, "properties": {"kod": "2575", "cislo": 62, "kod_obec": "555088", "naz_obec": "Havířov"}}, {"type": "Feature", "geometry": {"type": "Polygon", "coordinates": [[[18.398, 49.798], [18.398, 49.798], [18.4, 49.794], [18.401, 49.792], [18.403, 49.792], [18.4, 49.79], [18.395, 49.798], [18.398, 49.798]]]}, "properties": {"kod": "2577", "cislo": 63, "kod_obec": "555088", "naz_obec": "Havířov"}}, {"type": "Feature", "geometry": {"type": "Polygon", "coordinates": [[[18.398, 49.799], [18.397, 49.798], [18.398, 49.799], [18.398, 49.798], [18.395, 49.798], [18.398, 49.799]]]}, "properties": {"kod": "2579", "cislo": 64, "kod_obec": "555088", "naz_obec": "Havířov"}}, {"type": "Feature", "geometry": {"type": "Polygon", "coordinates": [[[18.398, 49.799], [18.403, 49.801], [18.402, 49.799], [18.398, 49.799], [18.397, 49.798], [18.398, 49.799]]]}, "properties": {"kod": "2581", "cislo": 65, "kod_obec": "555088", "naz_obec": "Havířov"}}, {"type": "Feature", "geometry": {"type": "Polygon", "coordinates": [[[18.4, 49.81], [18.414, 49.813], [18.415, 49.813], [18.418, 49.812], [18.423, 49.811], [18.424, 49.808], [18.422, 49.806], [18.42, 49.805], [18.422, 49.808], [18.419, 49.811], [18.417, 49.811], [18.419, 49.809], [18.418, 49.806], [18.415, 49.806], [18.413, 49.807], [18.411, 49.803], [18.408, 49.803], [18.408, 49.802], [18.412, 49.803], [18.413, 49.801], [18.413, 49.799], [18.415, 49.799], [18.416, 49.798], [18.419, 49.8], [18.42, 49.799], [18.424, 49.8], [18.426, 49.793], [18.414, 49.793], [18.413, 49.797], [18.411, 49.798], [18.411, 49.8], [18.407, 49.801], [18.407, 49.804], [18.4, 49.81]]]}, "properties": {"kod": "2583", "cislo": 66, "kod_obec": "555088", "naz_obec": "Havířov"}}, {"type": "Feature", "geometry": {"type": "Polygon", "coordinates": [[[18.419, 49.811], [18.422, 49.808], [18.42, 49.805], [18.418, 49.803], [18.417, 49.803], [18.419, 49.8], [18.423, 49.8], [18.42, 49.799], [18.419, 49.8], [18.416, 49.798], [18.415, 49.799], [18.415, 49.799], [18.418, 49.8], [18.416, 49.803], [18.415, 49.803], [18.415, 49.806], [18.418, 49.806], [18.419, 49.809], [18.417, 49.811], [18.419, 49.811]]]}, "properties": {"kod": "2585", "cislo": 67, "kod_obec": "555088", "naz_obec": "Havířov"}}, {"type": "Feature", "geometry": {"type": "Polygon", "coordinates": [[[18.413, 49.807], [18.415, 49.806], [18.415, 49.803], [18.417, 49.802], [18.413, 49.8], [18.415, 49.799], [18.415, 49.799], [18.413, 49.799], [18.413, 49.801], [18.412, 49.803], [18.408, 49.802], [18.408, 49.803], [18.411, 49.803], [18.413, 49.807]]]}, "properties": {"kod": "2587", "cislo": 68, "kod_obec": "555088", "naz_obec": "Havířov"}}, {"type": "Feature", "geometry": {"type": "Polygon", "coordinates": [[[18.416, 49.803], [18.418, 49.8], [18.415, 49.799], [18.413, 49.8], [18.417, 49.802], [18.415, 49.803], [18.416, 49.803]]]}, "properties": {"kod": "2589", "cislo": 69, "kod_obec": "555088", "naz_obec": "Havířov"}}, {"type": "Feature", "geometry": {"type": "Polygon", "coordinates": [[[18.418, 49.803], [18.419, 49.802], [18.42, 49.801], [18.423, 49.801], [18.424, 49.8], [18.42, 49.799], [18.423, 49.8], [18.419, 49.8], [18.417, 49.803], [18.418, 49.803]]]}, "properties": {"kod": "2591", "cislo": 70, "kod_obec": "555088", "naz_obec": "Havířov"}}, {"type": "Feature", "geometry": {"type": "Polygon", "coordinates": [[[18.419, 49.802], [18.422, 49.803], [18.423, 49.801], [18.42, 49.801], [18.419, 49.802]]]}, "properties": {"kod": "2593", "cislo": 71, "kod_obec": "555088", "naz_obec": "Havířov"}}, {"type": "Feature", "geometry": {"type": "Polygon", "coordinates": [[[18.422, 49.803], [18.419, 49.802], [18.418, 49.803], [18.42, 49.805], [18.422, 49.806], [18.422, 49.803]]]}, "properties": {"kod": "2595", "cislo": 72, "kod_obec": "555088", "naz_obec": "Havířov"}}, {"type": "Feature", "geometry": {"type": "Polygon", "coordinates": [[[18.428, 49.792], [18.433, 49.793], [18.442, 49.8], [18.449, 49.803], [18.448, 49.807], [18.451, 49.809], [18.446, 49.819], [18.452, 49.818], [18.457, 49.816], [18.47, 49.817], [18.469, 49.816], [18.466, 49.81], [18.463, 49.795], [18.453, 49.795], [18.45, 49.796], [18.45, 49.794], [18.444, 49.791], [18.443, 49.789], [18.448, 49.788], [18.448, 49.787], [18.446, 49.786], [18.44, 49.788], [18.439, 49.789], [18.428, 49.792]]]}, "properties": {"kod": "2597", "cislo": 73, "kod_obec": "555088", "naz_obec": "Havířov"}}, {"type": "Feature", "geometry": {"type": "Polygon", "coordinates": [[[18.446, 49.786], [18.448, 49.787], [18.448, 49.788], [18.443, 49.789], [18.444, 49.791], [18.45, 49.794], [18.45, 49.796], [18.453, 49.795], [18.455, 49.792], [18.459, 49.793], [18.451, 49.792], [18.455, 49.789], [18.45, 49.787], [18.451, 49.785], [18.449, 49.784], [18.446, 49.786]]]}, "properties": {"kod": "2599", "cislo": 74, "kod_obec": "555088", "naz_obec": "Havířov"}}, {"type": "Feature", "geometry": {"type": "Polygon", "coordinates": [[[18.462, 49.783], [18.46, 49.783], [18.458, 49.784], [18.457, 49.782], [18.452, 49.783], [18.449, 49.784], [18.451, 49.785], [18.45, 49.787], [18.455, 49.789], [18.451, 49.792], [18.459, 49.793], [18.461, 49.793], [18.461, 49.79], [18.464, 49.79], [18.462, 49.79], [18.464, 49.787], [18.461, 49.786], [18.462, 49.783]]]}, "properties": {"kod": "2601", "cislo": 75, "kod_obec": "555088", "naz_obec": "Havířov"}}, {"type": "Feature", "geometry": {"type": "Polygon", "coordinates": [[[18.453, 49.795], [18.463, 49.795], [18.468, 49.784], [18.464, 49.785], [18.462, 49.783], [18.461, 49.786], [18.464, 49.787], [18.462, 49.79], [18.464, 49.79], [18.461, 49.79], [18.461, 49.793], [18.459, 49.793], [18.455, 49.792], [18.453, 49.795]]]}, "properties": {"kod": "2603", "cislo": 76, "kod_obec": "555088", "naz_obec": "Havířov"}}, {"type": "Feature", "geometry": {"type": "Polygon", "coordinates": [[[18.418, 49.812], [18.422, 49.814], [18.429, 49.814], [18.429, 49.816], [18.434, 49.819], [18.446, 49.819], [18.451, 49.809], [18.448, 49.807], [18.449, 49.803], [18.442, 49.8], [18.433, 49.793], [18.428, 49.792], [18.426, 49.793], [18.426, 49.793], [18.424, 49.8], [18.423, 49.801], [18.422, 49.803], [18.422, 49.806], [18.424, 49.808], [18.423, 49.811], [18.418, 49.812]]]}, "properties": {"kod": "2605", "cislo": 77, "kod_obec": "555088", "naz_obec": "Havířov"}}, {"type": "Feature", "geometry": {"type": "Polygon", "coordinates": [[[18.468, 49.784], [18.47, 49.784], [18.474, 49.78], [18.489, 49.779], [18.497, 49.777], [18.494, 49.773], [18.483, 49.767], [18.47, 49.764], [18.468, 49.768], [18.465, 49.773], [18.465, 49.779], [18.462, 49.783], [18.464, 49.785], [18.468, 49.784]]]}, "properties": {"kod": "2607", "cislo": 78, "kod_obec": "555088", "naz_obec": "Havířov"}}, {"type": "Feature", "geometry": {"type": "Polygon", "coordinates": [[[18.404, 49.768], [18.4, 49.774], [18.41, 49.773], [18.41, 49.775], [18.414, 49.773], [18.418, 49.768], [18.417, 49.766], [18.42, 49.765], [18.427, 49.757], [18.422, 49.758], [18.407, 49.756], [18.406, 49.76], [18.399, 49.758], [18.398, 49.758], [18.405, 49.761], [18.4, 49.766], [18.404, 49.768]]]}, "properties": {"kod": "2609", "cislo": 79, "kod_obec": "555088", "naz_obec": "Havířov"}}]}