{"features":[{"geometry":{"type":"Polygon","coordinates":[[[18.437760460076284,49.7870135961535],[18.42816797458064,49.78900188440012],[18.428283353647583,49.78765113821673],[18.432028263442326,49.78664518098051],[18.434508470057192,49.78621661454335],[18.437760460076284,49.7870135961535]]],"crs":null},"type":"Feature","properties":{"kod":2501,"naz_obec":"Havířov","cislo":25,"kod_obec":"555088"}},{"geometry":{"type":"Polygon","coordinates":[[[18.426308136840614,49.7825223213728],[18.42376256623592,49.78273766485236],[18.419973660041943,49.77919712560938],[18.42350206072796,49.77766723753369],[18.42825148855734,49.78148237107511],[18.426308136840614,49.7825223213728]]],"crs":null},"type":"Feature","properties":{"kod":2457,"naz_obec":"Havířov","cislo":3,"kod_obec":"555088"}},{"geometry":{"type":"Polygon","coordinates":[[[18.426144672909874,49.79281522080541],[18.414474466097005,49.79255909125712],[18.405472898981692,49.790347312665894],[18.400192430294577,49.78588857313491],[18.410013818667707,49.786378705816915],[18.413930947465715,49.784384374094266],[18.413955572453737,49.78234208895633],[18.41660916301778,49.7819173802793],[18.419226451205052,49.78250852302749],[18.41958259128863,49.78484639634765],[18.422193607124424,49.78470560576168],[18.419387195784996,49.786180530101426],[18.420610202482017,49.78715488955079],[18.419369525849955,49.79050650288834],[18.42594384085958,49.79266140960255],[18.426144672909874,49.79281522080541]]],"crs":null},"type":"Feature","properties":{"kod":2453,"naz_obec":"Havířov","cislo":1,"kod_obec":"555088"}},{"geometry":{"type":"Polygon","coordinates":[[[18.422193607124424,49.78470560576168],[18.41958259128863,49.78484639634765],[18.419226451205052,49.78250852302749],[18.41660916301778,49.7819173802793],[18.415506995566385,49.78117310772027],[18.419973660041943,49.77919712560938],[18.42376256623592,49.78273766485236],[18.426308136840614,49.7825223213728],[18.425901249580814,49.78273877414075],[18.423026312381378,49.78426797549054],[18.422193607124424,49.78470560576168]]],"crs":null},"type":"Feature","properties":{"kod":2455,"naz_obec":"Havířov","cislo":2,"kod_obec":"555088"}},{"geometry":{"type":"Polygon","coordinates":[[[18.42825148855734,49.78148237107511],[18.42350206072796,49.77766723753369],[18.425274310248287,49.77722460491063],[18.430124655257252,49.780472687855365],[18.428758355046718,49.78120917531071],[18.42825148855734,49.78148237107511]]],"crs":null},"type":"Feature","properties":{"kod":2459,"naz_obec":"Havířov","cislo":4,"kod_obec":"555088"}},{"geometry":{"type":"Polygon","coordinates":[[[18.423026312381378,49.78426797549054],[18.425901249580814,49.78273877414075],[18.42942681277737,49.78482243145113],[18.429336197017257,49.784873360872275],[18.425852348401836,49.78650013812169],[18.423026312381378,49.78426797549054]]],"crs":null},"type":"Feature","properties":{"kod":2461,"naz_obec":"Havířov","cislo":5,"kod_obec":"555088"}},{"geometry":{"type":"Polygon","coordinates":[[[18.420610202482017,49.78715488955079],[18.419387195784996,49.786180530101426],[18.422193607124424,49.78470560576168],[18.423026312381378,49.78426797549054],[18.425852348401836,49.78650013812169],[18.420610202482017,49.78715488955079]]],"crs":null},"type":"Feature","properties":{"kod":2463,"naz_obec":"Havířov","cislo":6,"kod_obec":"555088"}},{"geometry":{"type":"Polygon","coordinates":[[[18.42942681277737,49.78482243145113],[18.425901249580814,49.78273877414075],[18.426308136840614,49.7825223213728],[18.42825148855734,49.78148237107511],[18.428758355046718,49.78120917531071],[18.431162930804835,49.78384643090978],[18.42942681277737,49.78482243145113]]],"crs":null},"type":"Feature","properties":{"kod":2465,"naz_obec":"Havířov","cislo":7,"kod_obec":"555088"}},{"geometry":{"type":"Polygon","coordinates":[[[18.431162930804835,49.78384643090978],[18.428758355046718,49.78120917531071],[18.430124655257252,49.780472687855365],[18.430459077453776,49.780346480829046],[18.433407218158038,49.782651125353304],[18.431162930804835,49.78384643090978]]],"crs":null},"type":"Feature","properties":{"kod":2467,"naz_obec":"Havířov","cislo":8,"kod_obec":"555088"}},{"geometry":{"type":"Polygon","coordinates":[[[18.430124655257252,49.780472687855365],[18.425274310248287,49.77722460491063],[18.428797370914246,49.77394552897796],[18.43404985111398,49.77832562816973],[18.433865530710168,49.77934576831868],[18.430459077453776,49.780346480829046],[18.430124655257252,49.780472687855365]]],"crs":null},"type":"Feature","properties":{"kod":2469,"naz_obec":"Havířov","cislo":9,"kod_obec":"555088"}},{"geometry":{"type":"Polygon","coordinates":[[[18.43404985111398,49.77832562816973],[18.428797370914246,49.77394552897796],[18.43024926586114,49.772236962977466],[18.434062582221497,49.773539852136054],[18.43748824138515,49.776088734304565],[18.43404985111398,49.77832562816973]]],"crs":null},"type":"Feature","properties":{"kod":2471,"naz_obec":"Havířov","cislo":10,"kod_obec":"555088"}},{"geometry":{"type":"Polygon","coordinates":[[[18.43748824138515,49.776088734304565],[18.434062582221497,49.773539852136054],[18.436570438926864,49.77267331468436],[18.439209457033176,49.77520060629164],[18.43872523952757,49.77545043846551],[18.43748824138515,49.776088734304565]]],"crs":null},"type":"Feature","properties":{"kod":2473,"naz_obec":"Havířov","cislo":11,"kod_obec":"555088"}},{"geometry":{"type":"Polygon","coordinates":[[[18.439209457033176,49.77520060629164],[18.436570438926864,49.77267331468436],[18.434062582221497,49.773539852136054],[18.43024926586114,49.772236962977466],[18.433816120104403,49.76907265057938],[18.441001886619276,49.77023837531784],[18.440339107548063,49.77138461624973],[18.437862851520013,49.771514036416136],[18.438232353357197,49.77336012150518],[18.44072339406183,49.772480679485035],[18.441780623088707,49.77382755760996],[18.439209457033176,49.77520060629164]]],"crs":null},"type":"Feature","properties":{"kod":2475,"naz_obec":"Havířov","cislo":12,"kod_obec":"555088"}},{"geometry":{"type":"Polygon","coordinates":[[[18.441780623088707,49.77382755760996],[18.44072339406183,49.772480679485035],[18.438232353357197,49.77336012150518],[18.437862851520013,49.771514036416136],[18.440339107548063,49.77138461624973],[18.443335677930147,49.77302745219712],[18.441780623088707,49.77382755760996]]],"crs":null},"type":"Feature","properties":{"kod":2477,"naz_obec":"Havířov","cislo":13,"kod_obec":"555088"}},{"geometry":{"type":"Polygon","coordinates":[[[18.419973660041943,49.77919712560938],[18.415506995566385,49.78117310772027],[18.408749892825856,49.77884613091368],[18.41018436295521,49.77491516989926],[18.413964525506685,49.77345304443455],[18.41800005174187,49.76753480726735],[18.416593742616463,49.7656158842875],[18.419588866248727,49.76477233723005],[18.42099068401439,49.76705772883563],[18.434806135720486,49.76842380043775],[18.433816120104403,49.76907265057938],[18.43024926586114,49.772236962977466],[18.428797370914246,49.77394552897796],[18.425274310248287,49.77722460491063],[18.42350206072796,49.77766723753369],[18.419973660041943,49.77919712560938]]],"crs":null},"type":"Feature","properties":{"kod":2479,"naz_obec":"Havířov","cislo":14,"kod_obec":"555088"}},{"geometry":{"type":"Polygon","coordinates":[[[18.433407218158038,49.782651125353304],[18.430459077453776,49.780346480829046],[18.433865530710168,49.77934576831868],[18.435264374587636,49.77905045538171],[18.43676863138998,49.781145897453385],[18.433407218158038,49.782651125353304]]],"crs":null},"type":"Feature","properties":{"kod":2481,"naz_obec":"Havířov","cislo":15,"kod_obec":"555088"}},{"geometry":{"type":"Polygon","coordinates":[[[18.43676863138998,49.781145897453385],[18.435264374587636,49.77905045538171],[18.441101418830257,49.77784117817062],[18.44120923675605,49.778163779905036],[18.44092419882045,49.7805880578761],[18.43676863138998,49.781145897453385]]],"crs":null},"type":"Feature","properties":{"kod":2483,"naz_obec":"Havířov","cislo":16,"kod_obec":"555088"}},{"geometry":{"type":"Polygon","coordinates":[[[18.433865530710168,49.77934576831868],[18.43404985111398,49.77832562816973],[18.43748824138515,49.776088734304565],[18.43872523952757,49.77545043846551],[18.441101418830257,49.77784117817062],[18.435264374587636,49.77905045538171],[18.433865530710168,49.77934576831868]]],"crs":null},"type":"Feature","properties":{"kod":2485,"naz_obec":"Havířov","cislo":17,"kod_obec":"555088"}},{"geometry":{"type":"Polygon","coordinates":[[[18.441101418830257,49.77784117817062],[18.43872523952757,49.77545043846551],[18.439209457033176,49.77520060629164],[18.441780623088707,49.77382755760996],[18.443335677930147,49.77302745219712],[18.444697972731905,49.77421435057351],[18.44161308529286,49.777741324126126],[18.441101418830257,49.77784117817062]]],"crs":null},"type":"Feature","properties":{"kod":2487,"naz_obec":"Havířov","cislo":18,"kod_obec":"555088"}},{"geometry":{"type":"Polygon","coordinates":[[[18.44161308529286,49.777741324126126],[18.444697972731905,49.77421435057351],[18.446245753749132,49.776838987983126],[18.44161308529286,49.777741324126126]]],"crs":null},"type":"Feature","properties":{"kod":2489,"naz_obec":"Havířov","cislo":19,"kod_obec":"555088"}},{"geometry":{"type":"Polygon","coordinates":[[[18.447442170415858,49.77985020330007],[18.44617494054146,49.7778182730329],[18.443134421466322,49.77769741307083],[18.444176642407783,49.779748868166614],[18.441857658697312,49.77979019517053],[18.44120923675605,49.778163779905036],[18.441101418830257,49.77784117817062],[18.44161308529286,49.777741324126126],[18.446245753749132,49.776838987983126],[18.44647894788041,49.777323817060406],[18.448456574099456,49.77936666687298],[18.447442170415858,49.77985020330007]]],"crs":null},"type":"Feature","properties":{"kod":2491,"naz_obec":"Havířov","cislo":20,"kod_obec":"555088"}},{"geometry":{"type":"Polygon","coordinates":[[[18.44092419882045,49.7805880578761],[18.44120923675605,49.778163779905036],[18.441857658697312,49.77979019517053],[18.444176642407783,49.779748868166614],[18.443134421466322,49.77769741307083],[18.44617494054146,49.7778182730329],[18.447442170415858,49.77985020330007],[18.44350148111227,49.78048567117939],[18.44092419882045,49.7805880578761]]],"crs":null},"type":"Feature","properties":{"kod":2493,"naz_obec":"Havířov","cislo":21,"kod_obec":"555088"}},{"geometry":{"type":"Polygon","coordinates":[[[18.43850185363965,49.78675866102228],[18.445601818701128,49.78276959908437],[18.44350148111227,49.78048567117939],[18.447442170415858,49.77985020330007],[18.448456574099456,49.77936666687298],[18.45075642309307,49.781607697688905],[18.452398094697546,49.78334864177591],[18.44588280709393,49.786338168901736],[18.440122864192784,49.7878909506332],[18.43850185363965,49.78675866102228]]],"crs":null},"type":"Feature","properties":{"kod":2495,"naz_obec":"Havířov","cislo":22,"kod_obec":"555088"}},{"geometry":{"type":"Polygon","coordinates":[[[18.433407218158038,49.782651125353304],[18.43676863138998,49.781145897453385],[18.44092419882045,49.7805880578761],[18.44350148111227,49.78048567117939],[18.445601818701128,49.78276959908437],[18.43850185363965,49.78675866102228],[18.433407218158038,49.782651125353304]]],"crs":null},"type":"Feature","properties":{"kod":2497,"naz_obec":"Havířov","cislo":23,"kod_obec":"555088"}},{"geometry":{"type":"Polygon","coordinates":[[[18.434508470057192,49.78621661454335],[18.432028263442326,49.78664518098051],[18.429336197017257,49.784873360872275],[18.42942681277737,49.78482243145113],[18.431162930804835,49.78384643090978],[18.433407218158038,49.782651125353304],[18.43850185363965,49.78675866102228],[18.437760460076284,49.7870135961535],[18.434508470057192,49.78621661454335]]],"crs":null},"type":"Feature","properties":{"kod":2499,"naz_obec":"Havířov","cislo":24,"kod_obec":"555088"}},{"geometry":{"type":"Polygon","coordinates":[[[18.419369525849955,49.79050650288834],[18.420610202482017,49.78715488955079],[18.425852348401836,49.78650013812169],[18.429336197017257,49.784873360872275],[18.432028263442326,49.78664518098051],[18.428283353647583,49.78765113821673],[18.42816797458064,49.78900188440012],[18.437760460076284,49.7870135961535],[18.43850185363965,49.78675866102228],[18.440122864192784,49.7878909506332],[18.427518214049137,49.79173828687693],[18.42594384085958,49.79266140960255],[18.419369525849955,49.79050650288834]]],"crs":null},"type":"Feature","properties":{"kod":2503,"naz_obec":"Havířov","cislo":26,"kod_obec":"555088"}},{"geometry":{"type":"Polygon","coordinates":[[[18.45322809670891,49.768403625828164],[18.46917784379314,49.76051119137407],[18.469801511571333,49.76351082119722],[18.467717237978768,49.76843538885388],[18.461979318920545,49.768158321901474],[18.455992278477872,49.768780335456334],[18.45322809670891,49.768403625828164]]],"crs":null},"type":"Feature","properties":{"kod":2505,"naz_obec":"Havířov","cislo":27,"kod_obec":"555088"}},{"geometry":{"type":"Polygon","coordinates":[[[18.433816120104403,49.76907265057938],[18.434806135720486,49.76842380043775],[18.42099068401439,49.76705772883563],[18.419588866248727,49.76477233723005],[18.42671396774084,49.75744636517817],[18.44953506284881,49.7578569550846],[18.444340393281482,49.76353057187377],[18.445155196429813,49.76883026718771],[18.441001886619276,49.77023837531784],[18.433816120104403,49.76907265057938]]],"crs":null},"type":"Feature","properties":{"kod":2507,"naz_obec":"Havířov","cislo":28,"kod_obec":"555088"}},{"geometry":{"type":"Polygon","coordinates":[[[18.45322809670891,49.768403625828164],[18.451278729390843,49.76946309805624],[18.445155196429813,49.76883026718771],[18.444340393281482,49.76353057187377],[18.44953506284881,49.7578569550846],[18.468620761339416,49.75765606276767],[18.46917784379314,49.76051119137407],[18.45322809670891,49.768403625828164]]],"crs":null},"type":"Feature","properties":{"kod":2509,"naz_obec":"Havířov","cislo":29,"kod_obec":"555088"}},{"geometry":{"type":"Polygon","coordinates":[[[18.452398094697546,49.78334864177591],[18.45075642309307,49.781607697688905],[18.455528459062357,49.78034082497281],[18.452891797975628,49.777862634107514],[18.456061415804484,49.777475792771],[18.458377799961376,49.777254427869174],[18.460231758251968,49.77773952959948],[18.459787758572066,49.78266326415113],[18.457927754588617,49.78385543823087],[18.456839196235148,49.781761766441974],[18.452398094697546,49.78334864177591]]],"crs":null},"type":"Feature","properties":{"kod":2511,"naz_obec":"Havířov","cislo":30,"kod_obec":"555088"}},{"geometry":{"type":"Polygon","coordinates":[[[18.459787758572066,49.78266326415113],[18.460231758251968,49.77773952959948],[18.458377799961376,49.777254427869174],[18.46200479071342,49.77371476578059],[18.46499311752969,49.77296281699492],[18.46450701713051,49.7788606991851],[18.46164243187738,49.78297136235361],[18.459787758572066,49.78266326415113]]],"crs":null},"type":"Feature","properties":{"kod":2513,"naz_obec":"Havířov","cislo":31,"kod_obec":"555088"}},{"geometry":{"type":"Polygon","coordinates":[[[18.452891797975628,49.777862634107514],[18.44647894788041,49.777323817060406],[18.446245753749132,49.776838987983126],[18.449243451873166,49.77625356576188],[18.455564894518186,49.77501658470951],[18.456061415804484,49.777475792771],[18.452891797975628,49.777862634107514]]],"crs":null},"type":"Feature","properties":{"kod":2515,"naz_obec":"Havířov","cislo":32,"kod_obec":"555088"}},{"geometry":{"type":"Polygon","coordinates":[[[18.455564894518186,49.77501658470951],[18.45622663899933,49.77488129673026],[18.459322848047126,49.77424817674236],[18.46200479071342,49.77371476578059],[18.458377799961376,49.777254427869174],[18.456061415804484,49.777475792771],[18.455564894518186,49.77501658470951]]],"crs":null},"type":"Feature","properties":{"kod":2517,"naz_obec":"Havířov","cislo":33,"kod_obec":"555088"}},{"geometry":{"type":"Polygon","coordinates":[[[18.45075642309307,49.781607697688905],[18.448456574099456,49.77936666687298],[18.44647894788041,49.777323817060406],[18.452891797975628,49.777862634107514],[18.455528459062357,49.78034082497281],[18.45075642309307,49.781607697688905]]],"crs":null},"type":"Feature","properties":{"kod":2519,"naz_obec":"Havířov","cislo":34,"kod_obec":"555088"}},{"geometry":{"type":"Polygon","coordinates":[[[18.446245753749132,49.776838987983126],[18.444697972731905,49.77421435057351],[18.443335677930147,49.77302745219712],[18.443851919622947,49.772779518095625],[18.448685089307244,49.77347735985995],[18.449243451873166,49.77625356576188],[18.446245753749132,49.776838987983126]]],"crs":null},"type":"Feature","properties":{"kod":2521,"naz_obec":"Havířov","cislo":35,"kod_obec":"555088"}},{"geometry":{"type":"Polygon","coordinates":[[[18.448685089307244,49.77347735985995],[18.45185088558891,49.7730038288023],[18.4552674812329,49.77286007888791],[18.45622663899933,49.77488129673026],[18.455564894518186,49.77501658470951],[18.449243451873166,49.77625356576188],[18.448685089307244,49.77347735985995]]],"crs":null},"type":"Feature","properties":{"kod":2523,"naz_obec":"Havířov","cislo":36,"kod_obec":"555088"}},{"geometry":{"type":"Polygon","coordinates":[[[18.45622663899933,49.77488129673026],[18.4552674812329,49.77286007888791],[18.457236498395698,49.77015845610685],[18.459414782085425,49.77142309596158],[18.459322848047126,49.77424817674236],[18.45622663899933,49.77488129673026]]],"crs":null},"type":"Feature","properties":{"kod":2525,"naz_obec":"Havířov","cislo":37,"kod_obec":"555088"}},{"geometry":{"type":"Polygon","coordinates":[[[18.448685089307244,49.77347735985995],[18.443851919622947,49.772779518095625],[18.450533736437926,49.77077680268538],[18.45185088558891,49.7730038288023],[18.448685089307244,49.77347735985995]]],"crs":null},"type":"Feature","properties":{"kod":2527,"naz_obec":"Havířov","cislo":38,"kod_obec":"555088"}},{"geometry":{"type":"Polygon","coordinates":[[[18.443335677930147,49.77302745219712],[18.440339107548063,49.77138461624973],[18.441001886619276,49.77023837531784],[18.445155196429813,49.76883026718771],[18.451278729390843,49.76946309805624],[18.45322809670891,49.768403625828164],[18.455992278477872,49.768780335456334],[18.455882459489473,49.76996230566933],[18.450533736437926,49.77077680268538],[18.443851919622947,49.772779518095625],[18.443335677930147,49.77302745219712]]],"crs":null},"type":"Feature","properties":{"kod":2529,"naz_obec":"Havířov","cislo":39,"kod_obec":"555088"}},{"geometry":{"type":"Polygon","coordinates":[[[18.450533736437926,49.77077680268538],[18.455882459489473,49.76996230566933],[18.457236498395698,49.77015845610685],[18.4552674812329,49.77286007888791],[18.45185088558891,49.7730038288023],[18.450533736437926,49.77077680268538]]],"crs":null},"type":"Feature","properties":{"kod":2531,"naz_obec":"Havířov","cislo":40,"kod_obec":"555088"}},{"geometry":{"type":"Polygon","coordinates":[[[18.459322848047126,49.77424817674236],[18.459414782085425,49.77142309596158],[18.457236498395698,49.77015845610685],[18.461665695329515,49.76967590054508],[18.461979318920545,49.768158321901474],[18.467717237978768,49.76843538885388],[18.46499311752969,49.77296281699492],[18.46200479071342,49.77371476578059],[18.459322848047126,49.77424817674236]]],"crs":null},"type":"Feature","properties":{"kod":2533,"naz_obec":"Havířov","cislo":41,"kod_obec":"555088"}},{"geometry":{"type":"Polygon","coordinates":[[[18.455882459489473,49.76996230566933],[18.455992278477872,49.768780335456334],[18.461979318920545,49.768158321901474],[18.461665695329515,49.76967590054508],[18.457236498395698,49.77015845610685],[18.455882459489473,49.76996230566933]]],"crs":null},"type":"Feature","properties":{"kod":2535,"naz_obec":"Havířov","cislo":42,"kod_obec":"555088"}},{"geometry":{"type":"Polygon","coordinates":[[[18.40806347454164,49.79749640140156],[18.40849736381843,49.7944684277882],[18.40620250876751,49.794546223454994],[18.40360467396916,49.790978341873576],[18.405472898981692,49.790347312665894],[18.414474466097005,49.79255909125712],[18.413373544489996,49.79725111099074],[18.4106417320303,49.798358487031365],[18.40806347454164,49.79749640140156]]],"crs":null},"type":"Feature","properties":{"kod":2537,"naz_obec":"Havířov","cislo":43,"kod_obec":"555088"}},{"geometry":{"type":"Polygon","coordinates":[[[18.403950283910724,49.79738937032972],[18.403231699747106,49.795828891227984],[18.40620250876751,49.794546223454994],[18.40849736381843,49.7944684277882],[18.40806347454164,49.79749640140156],[18.403950283910724,49.79738937032972]]],"crs":null},"type":"Feature","properties":{"kod":2539,"naz_obec":"Havířov","cislo":44,"kod_obec":"555088"}},{"geometry":{"type":"Polygon","coordinates":[[[18.399631029979247,49.79711559872845],[18.399192023315532,49.792926960388],[18.400295122541586,49.79033695726162],[18.39888518683032,49.78740993350496],[18.398175833837108,49.785047000351895],[18.400192430294577,49.78588857313491],[18.405472898981692,49.790347312665894],[18.40360467396916,49.790978341873576],[18.40620250876751,49.794546223454994],[18.403231699747106,49.795828891227984],[18.403950283910724,49.79738937032972],[18.399631029979247,49.79711559872845]]],"crs":null},"type":"Feature","properties":{"kod":2541,"naz_obec":"Havířov","cislo":45,"kod_obec":"555088"}},{"geometry":{"type":"Polygon","coordinates":[[[18.40273882500992,49.801110030934325],[18.40181049502988,49.79933692357209],[18.39835370721801,49.79883095042088],[18.398077442951184,49.79752614744455],[18.399631029979247,49.79711559872845],[18.403950283910724,49.79738937032972],[18.40806347454164,49.79749640140156],[18.4106417320303,49.798358487031365],[18.41088171698851,49.7999613450213],[18.407290932147102,49.801242242342425],[18.40273882500992,49.801110030934325]]],"crs":null},"type":"Feature","properties":{"kod":2543,"naz_obec":"Havířov","cislo":46,"kod_obec":"555088"}},{"geometry":{"type":"Polygon","coordinates":[[[18.398077442951184,49.79752614744455],[18.398078618620815,49.7935159598185],[18.399192023315532,49.792926960388],[18.399631029979247,49.79711559872845],[18.398077442951184,49.79752614744455]]],"crs":null},"type":"Feature","properties":{"kod":2545,"naz_obec":"Havířov","cislo":47,"kod_obec":"555088"}},{"geometry":{"type":"Polygon","coordinates":[[[18.394733089630634,49.79814378861774],[18.398078618620815,49.7935159598185],[18.398077442951184,49.79752614744455],[18.39835370721801,49.79883095042088],[18.394733089630634,49.79814378861774]]],"crs":null},"type":"Feature","properties":{"kod":2547,"naz_obec":"Havířov","cislo":48,"kod_obec":"555088"}},{"geometry":{"type":"Polygon","coordinates":[[[18.40273882500992,49.801110030934325],[18.394733089630634,49.79814378861774],[18.39835370721801,49.79883095042088],[18.40181049502988,49.79933692357209],[18.40273882500992,49.801110030934325]]],"crs":null},"type":"Feature","properties":{"kod":2549,"naz_obec":"Havířov","cislo":49,"kod_obec":"555088"}},{"geometry":{"type":"Polygon","coordinates":[[[18.415335859257752,49.799242725144644],[18.413373544489996,49.79725111099074],[18.414474466097005,49.79255909125712],[18.426144672909874,49.79281522080541],[18.424071371596547,49.80016571467875],[18.422753429296694,49.800347765156666],[18.42026604727469,49.79893315495527],[18.41875485681189,49.80026896466477],[18.415335859257752,49.799242725144644]]],"crs":null},"type":"Feature","properties":{"kod":2551,"naz_obec":"Havířov","cislo":50,"kod_obec":"555088"}},{"geometry":{"type":"Polygon","coordinates":[[[18.414306910582354,49.813388245038716],[18.41186610198101,49.81245329166129],[18.41374333600502,49.80675061870462],[18.41148553373216,49.805127179943156],[18.412542221331854,49.802294673355064],[18.416079100143968,49.800584213011874],[18.415335859257752,49.799242725144644],[18.41875485681189,49.80026896466477],[18.418307536487983,49.800760271741865],[18.416265558371965,49.80305332962411],[18.418050273099073,49.8031326397333],[18.421982256546794,49.80573337939258],[18.423957089788747,49.80773251964081],[18.42251763844523,49.810646169394815],[18.41844547368067,49.81218783408047],[18.41514327104655,49.81314698360092],[18.414306910582354,49.813388245038716]]],"crs":null},"type":"Feature","properties":{"kod":2553,"naz_obec":"Havířov","cislo":51,"kod_obec":"555088"}},{"geometry":{"type":"Polygon","coordinates":[[[18.41186610198101,49.81245329166129],[18.401949209935257,49.81145578772287],[18.39962501992639,49.81003186041587],[18.407071527132164,49.80374073241763],[18.407290932147102,49.801242242342425],[18.41088171698851,49.7999613450213],[18.4106417320303,49.798358487031365],[18.413373544489996,49.79725111099074],[18.415335859257752,49.799242725144644],[18.416079100143968,49.800584213011874],[18.412542221331854,49.802294673355064],[18.41148553373216,49.805127179943156],[18.41374333600502,49.80675061870462],[18.41186610198101,49.81245329166129]]],"crs":null},"type":"Feature","properties":{"kod":2555,"naz_obec":"Havířov","cislo":52,"kod_obec":"555088"}},{"geometry":{"type":"Polygon","coordinates":[[[18.422753429296694,49.800347765156666],[18.418307536487983,49.800760271741865],[18.41875485681189,49.80026896466477],[18.42026604727469,49.79893315495527],[18.422753429296694,49.800347765156666]]],"crs":null},"type":"Feature","properties":{"kod":2557,"naz_obec":"Havířov","cislo":53,"kod_obec":"555088"}},{"geometry":{"type":"Polygon","coordinates":[[[18.416265558371965,49.80305332962411],[18.418307536487983,49.800760271741865],[18.422753429296694,49.800347765156666],[18.424071371596547,49.80016571467875],[18.42212009075251,49.8025249515631],[18.418050273099073,49.8031326397333],[18.416265558371965,49.80305332962411]]],"crs":null},"type":"Feature","properties":{"kod":2559,"naz_obec":"Havířov","cislo":54,"kod_obec":"555088"}},{"geometry":{"type":"Polygon","coordinates":[[[18.421982256546794,49.80573337939258],[18.418050273099073,49.8031326397333],[18.42212009075251,49.8025249515631],[18.421982256546794,49.80573337939258]]],"crs":null},"type":"Feature","properties":{"kod":2561,"naz_obec":"Havířov","cislo":55,"kod_obec":"555088"}},{"geometry":{"type":"Polygon","coordinates":[[[18.427518214049137,49.79173828687693],[18.440122864192784,49.7878909506332],[18.44836870589395,49.792908320518116],[18.449846999906505,49.79568543341637],[18.452897366948257,49.79505994499675],[18.463301330290204,49.79537091688108],[18.466065627837025,49.80987910324987],[18.46946458295234,49.81574381065707],[18.470012756867504,49.816766885528864],[18.45725910142001,49.81562255339694],[18.452464527326534,49.81820272949791],[18.445772937627318,49.81912787773375],[18.45055441801258,49.809379302447255],[18.448367714681464,49.807374813062324],[18.44931292122745,49.80301806439169],[18.44199576336499,49.800455857037875],[18.432973200139262,49.79279214528365],[18.427518214049137,49.79173828687693]]],"crs":null},"type":"Feature","properties":{"kod":2563,"naz_obec":"Havířov","cislo":56,"kod_obec":"555088"}},{"geometry":{"type":"Polygon","coordinates":[[[18.440122864192784,49.7878909506332],[18.44588280709393,49.786338168901736],[18.454678185888167,49.78894054757281],[18.453680598217016,49.79135454126918],[18.458153177200796,49.79230673778173],[18.454725740055775,49.79249291406006],[18.452897366948257,49.79505994499675],[18.449846999906505,49.79568543341637],[18.44836870589395,49.792908320518116],[18.440122864192784,49.7878909506332]]],"crs":null},"type":"Feature","properties":{"kod":2565,"naz_obec":"Havířov","cislo":57,"kod_obec":"555088"}},{"geometry":{"type":"Polygon","coordinates":[[[18.458153177200796,49.79230673778173],[18.453680598217016,49.79135454126918],[18.454678185888167,49.78894054757281],[18.44588280709393,49.786338168901736],[18.452398094697546,49.78334864177591],[18.456839196235148,49.781761766441974],[18.457927754588617,49.78385543823087],[18.459787758572066,49.78266326415113],[18.46164243187738,49.78297136235361],[18.460832780571955,49.785806843468286],[18.463772859865816,49.78709154642962],[18.460465312398703,49.7926970069186],[18.458153177200796,49.79230673778173]]],"crs":null},"type":"Feature","properties":{"kod":2567,"naz_obec":"Havířov","cislo":58,"kod_obec":"555088"}},{"geometry":{"type":"Polygon","coordinates":[[[18.452897366948257,49.79505994499675],[18.454725740055775,49.79249291406006],[18.458153177200796,49.79230673778173],[18.460465312398703,49.7926970069186],[18.463772859865816,49.78709154642962],[18.460832780571955,49.785806843468286],[18.46164243187738,49.78297136235361],[18.4641002782216,49.78476898802348],[18.467725666225306,49.78397625518199],[18.463301330290204,49.79537091688108],[18.452897366948257,49.79505994499675]]],"crs":null},"type":"Feature","properties":{"kod":2569,"naz_obec":"Havířov","cislo":59,"kod_obec":"555088"}},{"geometry":{"type":"Polygon","coordinates":[[[18.41844547368067,49.81218783408047],[18.42251763844523,49.810646169394815],[18.423957089788747,49.80773251964081],[18.421982256546794,49.80573337939258],[18.42212009075251,49.8025249515631],[18.424071371596547,49.80016571467875],[18.426144672909874,49.79281522080541],[18.42594384085958,49.79266140960255],[18.427518214049137,49.79173828687693],[18.432973200139262,49.79279214528365],[18.44199576336499,49.800455857037875],[18.44931292122745,49.80301806439169],[18.448367714681464,49.807374813062324],[18.45055441801258,49.809379302447255],[18.445772937627318,49.81912787773375],[18.434452535501787,49.81909555633865],[18.429167261455518,49.81619849666051],[18.429448473449163,49.813929301476655],[18.42168823394949,49.81410745772477],[18.41844547368067,49.81218783408047]]],"crs":null},"type":"Feature","properties":{"kod":2571,"naz_obec":"Havířov","cislo":60,"kod_obec":"555088"}},{"geometry":{"type":"Polygon","coordinates":[[[18.467725666225306,49.78397625518199],[18.4641002782216,49.78476898802348],[18.46164243187738,49.78297136235361],[18.46450701713051,49.7788606991851],[18.46499311752969,49.77296281699492],[18.467717237978768,49.76843538885388],[18.469801511571333,49.76351082119722],[18.48287530765706,49.76738143118599],[18.494307749140305,49.773362805061815],[18.496936015559655,49.77698081232049],[18.489169179955187,49.779485847859256],[18.473862720474852,49.779777800119774],[18.47035601079819,49.78392530227426],[18.467725666225306,49.78397625518199]]],"crs":null},"type":"Feature","properties":{"kod":2573,"naz_obec":"Havířov","cislo":61,"kod_obec":"555088"}},{"geometry":{"type":"Polygon","coordinates":[[[18.4041039775044,49.767838232275864],[18.40035045703887,49.765636937431765],[18.405384942067222,49.76146153993023],[18.39799388840293,49.75781492802276],[18.398971121019834,49.7575741133943],[18.406336810920177,49.75967004407577],[18.407070256138663,49.75551513261339],[18.42186673999118,49.75792116847179],[18.42671396774084,49.75744636517817],[18.419588866248727,49.76477233723005],[18.416593742616463,49.7656158842875],[18.41800005174187,49.76753480726735],[18.413964525506685,49.77345304443455],[18.41018436295521,49.77491516989926],[18.409561061010898,49.77266147641769],[18.40012264887763,49.77402258766433],[18.4041039775044,49.767838232275864]]],"crs":null},"type":"Feature","properties":{"kod":2575,"naz_obec":"Havířov","cislo":62,"kod_obec":"555088"}}],"type":"FeatureCollection","properties":{"exceededTransferLimit":false}}