{"type": "FeatureCollection", "features": [{"type": "Feature", "geometry": {"type": "Polygon", "coordinates": [[[18.527, 49.862], [18.528, 49.861], [18.54, 49.857], [18.542, 49.857], [18.546, 49.857], [18.543, 49.851], [18.545, 49.848], [18.538, 49.848], [18.533, 49.844], [18.53, 49.846], [18.526, 49.846], [18.524, 49.849], [18.516, 49.847], [18.518, 49.845], [18.515, 49.839], [18.53, 49.832], [18.525, 49.831], [18.524, 49.833], [18.52, 49.826], [18.512, 49.825], [18.505, 49.82], [18.496, 49.817], [18.483, 49.816], [18.482, 49.819], [18.477, 49.816], [18.474, 49.818], [18.469, 49.816], [18.47, 49.817], [18.457, 49.816], [18.452, 49.818], [18.459, 49.834], [18.45, 49.843], [18.454, 49.845], [18.466, 49.847], [18.479, 49.853], [18.485, 49.853], [18.492, 49.849], [18.502, 49.855], [18.509, 49.851], [18.524, 49.852], [18.527, 49.862]]]}, "properties": {"kod": "1221", "cislo": 1, "kod_obec": "598917", "naz_obec": "Karviná"}}, {"type": "Feature", "geometry": {"type": "Polygon", "coordinates": [[[18.545, 49.848], [18.543, 49.851], [18.546, 49.857], [18.546, 49.857], [18.547, 49.856], [18.55, 49.854], [18.55, 49.853], [18.55, 49.85], [18.551, 49.85], [18.547, 49.847], [18.545, 49.848]]]}, "properties": {"kod": "1225", "cislo": 3, "kod_obec": "598917", "naz_obec": "Karviná"}}, {"type": "Feature", "geometry": {"type": "Polygon", "coordinates": [[[18.516, 49.847], [18.524, 49.849], [18.526, 49.846], [18.53, 49.846], [18.533, 49.844], [18.538, 49.848], [18.545, 49.848], [18.547, 49.847], [18.552, 49.841], [18.556, 49.839], [18.549, 49.839], [18.536, 49.832], [18.53, 49.832], [18.515, 49.839], [18.518, 49.845], [18.516, 49.847]]]}, "properties": {"kod": "1227", "cislo": 4, "kod_obec": "598917", "naz_obec": "Karviná"}}, {"type": "Feature", "geometry": {"type": "Polygon", "coordinates": [[[18.565, 49.851], [18.565, 49.85], [18.563, 49.849], [18.565, 49.851]]]}, "properties": {"kod": "1229", "cislo": 5, "kod_obec": "598917", "naz_obec": "Karviná"}}, {"type": "Feature", "geometry": {"type": "Polygon", "coordinates": [[[18.587, 49.844], [18.569, 49.833], [18.568, 49.832], [18.561, 49.839], [18.556, 49.839], [18.552, 49.841], [18.556, 49.842], [18.555, 49.844], [18.557, 49.842], [18.56, 49.844], [18.576, 49.841], [18.58, 49.843], [18.579, 49.846], [18.581, 49.847], [18.579, 49.848], [18.582, 49.851], [18.587, 49.844]]]}, "properties": {"kod": "1231", "cislo": 6, "kod_obec": "598917", "naz_obec": "Karviná"}}, {"type": "Feature", "geometry": {"type": "Polygon", "coordinates": [[[18.589, 49.853], [18.584, 49.852], [18.59, 49.846], [18.587, 49.844], [18.582, 49.851], [18.579, 49.848], [18.581, 49.847], [18.579, 49.846], [18.58, 49.843], [18.576, 49.841], [18.56, 49.844], [18.557, 49.846], [18.558, 49.847], [18.563, 49.849], [18.565, 49.85], [18.569, 49.852], [18.569, 49.854], [18.574, 49.854], [18.575, 49.856], [18.575, 49.858], [18.577, 49.859], [18.573, 49.861], [18.58, 49.862], [18.58, 49.867], [18.59, 49.868], [18.599, 49.866], [18.606, 49.862], [18.604, 49.857], [18.592, 49.856], [18.589, 49.853]]]}, "properties": {"kod": "1233", "cislo": 7, "kod_obec": "598917", "naz_obec": "Karviná"}}, {"type": "Feature", "geometry": {"type": "Polygon", "coordinates": [[[18.551, 49.85], [18.553, 49.848], [18.555, 49.847], [18.556, 49.847], [18.557, 49.847], [18.558, 49.847], [18.557, 49.846], [18.56, 49.844], [18.557, 49.842], [18.555, 49.844], [18.556, 49.842], [18.552, 49.841], [18.547, 49.847], [18.551, 49.85]]]}, "properties": {"kod": "1235", "cislo": 8, "kod_obec": "598917", "naz_obec": "Karviná"}}, {"type": "Feature", "geometry": {"type": "Polygon", "coordinates": [[[18.555, 49.849], [18.555, 49.849], [18.556, 49.847], [18.555, 49.847], [18.553, 49.848], [18.554, 49.849], [18.555, 49.849]]]}, "properties": {"kod": "1237", "cislo": 9, "kod_obec": "598917", "naz_obec": "Karviná"}}, {"type": "Feature", "geometry": {"type": "Polygon", "coordinates": [[[18.558, 49.851], [18.559, 49.85], [18.56, 49.849], [18.557, 49.847], [18.556, 49.847], [18.555, 49.849], [18.558, 49.851]]]}, "properties": {"kod": "1239", "cislo": 10, "kod_obec": "598917", "naz_obec": "Karviná"}}, {"type": "Feature", "geometry": {"type": "Polygon", "coordinates": [[[18.56, 49.849], [18.563, 49.849], [18.558, 49.847], [18.557, 49.847], [18.56, 49.849]]]}, "properties": {"kod": "1241", "cislo": 11, "kod_obec": "598917", "naz_obec": "Karviná"}}, {"type": "Feature", "geometry": {"type": "Polygon", "coordinates": [[[18.56, 49.85], [18.561, 49.85], [18.564, 49.851], [18.565, 49.851], [18.563, 49.849], [18.56, 49.849], [18.559, 49.85], [18.56, 49.85]]]}, "properties": {"kod": "1243", "cislo": 12, "kod_obec": "598917", "naz_obec": "Karviná"}}, {"type": "Feature", "geometry": {"type": "Polygon", "coordinates": [[[18.564, 49.853], [18.564, 49.854], [18.569, 49.854], [18.569, 49.852], [18.565, 49.85], [18.565, 49.851], [18.564, 49.851], [18.564, 49.853]]]}, "properties": {"kod": "1245", "cislo": 13, "kod_obec": "598917", "naz_obec": "Karviná"}}, {"type": "Feature", "geometry": {"type": "Polygon", "coordinates": [[[18.559, 49.854], [18.56, 49.854], [18.56, 49.852], [18.564, 49.853], [18.564, 49.851], [18.561, 49.85], [18.56, 49.85], [18.559, 49.854]]]}, "properties": {"kod": "1247", "cislo": 14, "kod_obec": "598917", "naz_obec": "Karviná"}}, {"type": "Feature", "geometry": {"type": "Polygon", "coordinates": [[[18.558, 49.852], [18.557, 49.854], [18.559, 49.854], [18.559, 49.854], [18.56, 49.85], [18.559, 49.85], [18.558, 49.851], [18.558, 49.852]]]}, "properties": {"kod": "1249", "cislo": 15, "kod_obec": "598917", "naz_obec": "Karviná"}}, {"type": "Feature", "geometry": {"type": "Polygon", "coordinates": [[[18.563, 49.854], [18.564, 49.854], [18.564, 49.853], [18.56, 49.852], [18.56, 49.854], [18.563, 49.854]]]}, "properties": {"kod": "1251", "cislo": 16, "kod_obec": "598917", "naz_obec": "Karviná"}}, {"type": "Feature", "geometry": {"type": "Polygon", "coordinates": [[[18.554, 49.854], [18.557, 49.854], [18.558, 49.852], [18.555, 49.852], [18.554, 49.854]]]}, "properties": {"kod": "1253", "cislo": 17, "kod_obec": "598917", "naz_obec": "Karviná"}}, {"type": "Feature", "geometry": {"type": "Polygon", "coordinates": [[[18.555, 49.852], [18.558, 49.852], [18.558, 49.851], [18.555, 49.849], [18.555, 49.849], [18.555, 49.852]]]}, "properties": {"kod": "1255", "cislo": 18, "kod_obec": "598917", "naz_obec": "Karviná"}}, {"type": "Feature", "geometry": {"type": "Polygon", "coordinates": [[[18.55, 49.854], [18.552, 49.854], [18.554, 49.854], [18.555, 49.852], [18.555, 49.849], [18.554, 49.849], [18.553, 49.85], [18.55, 49.853], [18.55, 49.854]]]}, "properties": {"kod": "1257", "cislo": 19, "kod_obec": "598917", "naz_obec": "Karviná"}}, {"type": "Feature", "geometry": {"type": "Polygon", "coordinates": [[[18.55, 49.853], [18.553, 49.85], [18.55, 49.85], [18.55, 49.853]]]}, "properties": {"kod": "1259", "cislo": 20, "kod_obec": "598917", "naz_obec": "Karviná"}}, {"type": "Feature", "geometry": {"type": "Polygon", "coordinates": [[[18.553, 49.85], [18.554, 49.849], [18.553, 49.848], [18.551, 49.85], [18.55, 49.85], [18.553, 49.85]]]}, "properties": {"kod": "1261", "cislo": 21, "kod_obec": "598917", "naz_obec": "Karviná"}}, {"type": "Feature", "geometry": {"type": "Polygon", "coordinates": [[[18.497, 49.891], [18.506, 49.894], [18.509, 49.883], [18.515, 49.883], [18.518, 49.878], [18.529, 49.879], [18.537, 49.874], [18.539, 49.873], [18.531, 49.87], [18.525, 49.87], [18.525, 49.865], [18.523, 49.864], [18.527, 49.862], [18.524, 49.852], [18.509, 49.851], [18.502, 49.855], [18.499, 49.86], [18.498, 49.859], [18.496, 49.86], [18.498, 49.864], [18.49, 49.867], [18.493, 49.87], [18.491, 49.872], [18.487, 49.87], [18.488, 49.874], [18.49, 49.874], [18.497, 49.877], [18.497, 49.891]]]}, "properties": {"kod": "1263", "cislo": 22, "kod_obec": "598917", "naz_obec": "Karviná"}}, {"type": "Feature", "geometry": {"type": "Polygon", "coordinates": [[[18.548, 49.862], [18.547, 49.858], [18.546, 49.857], [18.546, 49.857], [18.542, 49.857], [18.541, 49.859], [18.54, 49.86], [18.544, 49.861], [18.545, 49.86], [18.547, 49.861], [18.548, 49.862]]]}, "properties": {"kod": "1265", "cislo": 23, "kod_obec": "598917", "naz_obec": "Karviná"}}, {"type": "Feature", "geometry": {"type": "Polygon", "coordinates": [[[18.543, 49.862], [18.544, 49.861], [18.54, 49.86], [18.54, 49.861], [18.543, 49.862]]]}, "properties": {"kod": "1267", "cislo": 24, "kod_obec": "598917", "naz_obec": "Karviná"}}, {"type": "Feature", "geometry": {"type": "Polygon", "coordinates": [[[18.547, 49.861], [18.545, 49.86], [18.544, 49.861], [18.543, 49.862], [18.547, 49.862], [18.547, 49.861]]]}, "properties": {"kod": "1269", "cislo": 25, "kod_obec": "598917", "naz_obec": "Karviná"}}, {"type": "Feature", "geometry": {"type": "Polygon", "coordinates": [[[18.547, 49.866], [18.548, 49.862], [18.547, 49.861], [18.547, 49.862], [18.543, 49.862], [18.54, 49.861], [18.539, 49.862], [18.544, 49.862], [18.542, 49.865], [18.547, 49.866]]]}, "properties": {"kod": "1271", "cislo": 26, "kod_obec": "598917", "naz_obec": "Karviná"}}, {"type": "Feature", "geometry": {"type": "Polygon", "coordinates": [[[18.542, 49.865], [18.544, 49.862], [18.539, 49.862], [18.538, 49.864], [18.542, 49.865]]]}, "properties": {"kod": "1273", "cislo": 27, "kod_obec": "598917", "naz_obec": "Karviná"}}, {"type": "Feature", "geometry": {"type": "Polygon", "coordinates": [[[18.537, 49.867], [18.546, 49.868], [18.547, 49.866], [18.542, 49.865], [18.538, 49.864], [18.537, 49.867]]]}, "properties": {"kod": "1275", "cislo": 28, "kod_obec": "598917", "naz_obec": "Karviná"}}, {"type": "Feature", "geometry": {"type": "Polygon", "coordinates": [[[18.537, 49.874], [18.541, 49.877], [18.546, 49.868], [18.537, 49.867], [18.536, 49.869], [18.531, 49.87], [18.539, 49.873], [18.537, 49.874]]]}, "properties": {"kod": "1277", "cislo": 29, "kod_obec": "598917", "naz_obec": "Karviná"}}, {"type": "Feature", "geometry": {"type": "Polygon", "coordinates": [[[18.525, 49.865], [18.525, 49.87], [18.531, 49.87], [18.536, 49.869], [18.53, 49.867], [18.525, 49.865]]]}, "properties": {"kod": "1279", "cislo": 30, "kod_obec": "598917", "naz_obec": "Karviná"}}, {"type": "Feature", "geometry": {"type": "Polygon", "coordinates": [[[18.53, 49.867], [18.536, 49.869], [18.537, 49.867], [18.53, 49.867]]]}, "properties": {"kod": "1281", "cislo": 31, "kod_obec": "598917", "naz_obec": "Karviná"}}, {"type": "Feature", "geometry": {"type": "Polygon", "coordinates": [[[18.53, 49.867], [18.537, 49.867], [18.538, 49.864], [18.533, 49.864], [18.528, 49.861], [18.527, 49.862], [18.523, 49.864], [18.525, 49.865], [18.53, 49.867]]]}, "properties": {"kod": "1283", "cislo": 32, "kod_obec": "598917", "naz_obec": "Karviná"}}, {"type": "Feature", "geometry": {"type": "Polygon", "coordinates": [[[18.533, 49.864], [18.538, 49.864], [18.539, 49.862], [18.534, 49.862], [18.533, 49.864]]]}, "properties": {"kod": "1289", "cislo": 35, "kod_obec": "598917", "naz_obec": "Karviná"}}, {"type": "Feature", "geometry": {"type": "Polygon", "coordinates": [[[18.539, 49.862], [18.54, 49.861], [18.537, 49.86], [18.535, 49.86], [18.534, 49.862], [18.539, 49.862]]]}, "properties": {"kod": "1291", "cislo": 36, "kod_obec": "598917", "naz_obec": "Karviná"}}, {"type": "Feature", "geometry": {"type": "Polygon", "coordinates": [[[18.533, 49.864], [18.534, 49.862], [18.535, 49.86], [18.537, 49.86], [18.538, 49.858], [18.54, 49.857], [18.528, 49.861], [18.533, 49.864]]]}, "properties": {"kod": "1293", "cislo": 37, "kod_obec": "598917", "naz_obec": "Karviná"}}, {"type": "Feature", "geometry": {"type": "Polygon", "coordinates": [[[18.537, 49.86], [18.54, 49.861], [18.54, 49.86], [18.541, 49.859], [18.538, 49.858], [18.537, 49.86]]]}, "properties": {"kod": "1295", "cislo": 38, "kod_obec": "598917", "naz_obec": "Karviná"}}, {"type": "Feature", "geometry": {"type": "Polygon", "coordinates": [[[18.541, 49.859], [18.542, 49.857], [18.54, 49.857], [18.538, 49.858], [18.541, 49.859]]]}, "properties": {"kod": "1297", "cislo": 39, "kod_obec": "598917", "naz_obec": "Karviná"}}, {"type": "Feature", "geometry": {"type": "Polygon", "coordinates": [[[18.547, 49.856], [18.549, 49.857], [18.55, 49.856], [18.551, 49.855], [18.552, 49.854], [18.55, 49.854], [18.547, 49.856]]]}, "properties": {"kod": "1299", "cislo": 40, "kod_obec": "598917", "naz_obec": "Karviná"}}, {"type": "Feature", "geometry": {"type": "Polygon", "coordinates": [[[18.553, 49.861], [18.554, 49.858], [18.55, 49.856], [18.549, 49.857], [18.547, 49.856], [18.546, 49.857], [18.547, 49.858], [18.548, 49.86], [18.553, 49.861]]]}, "properties": {"kod": "1301", "cislo": 41, "kod_obec": "598917", "naz_obec": "Karviná"}}, {"type": "Feature", "geometry": {"type": "Polygon", "coordinates": [[[18.554, 49.858], [18.554, 49.856], [18.551, 49.855], [18.55, 49.856], [18.554, 49.858]]]}, "properties": {"kod": "1303", "cislo": 42, "kod_obec": "598917", "naz_obec": "Karviná"}}, {"type": "Feature", "geometry": {"type": "Polygon", "coordinates": [[[18.551, 49.855], [18.554, 49.856], [18.557, 49.855], [18.557, 49.854], [18.554, 49.854], [18.552, 49.854], [18.551, 49.855]]]}, "properties": {"kod": "1305", "cislo": 43, "kod_obec": "598917", "naz_obec": "Karviná"}}, {"type": "Feature", "geometry": {"type": "Polygon", "coordinates": [[[18.557, 49.856], [18.557, 49.855], [18.554, 49.856], [18.554, 49.858], [18.557, 49.856]]]}, "properties": {"kod": "1307", "cislo": 44, "kod_obec": "598917", "naz_obec": "Karviná"}}, {"type": "Feature", "geometry": {"type": "Polygon", "coordinates": [[[18.56, 49.856], [18.559, 49.854], [18.557, 49.854], [18.557, 49.855], [18.557, 49.856], [18.559, 49.857], [18.56, 49.856]]]}, "properties": {"kod": "1309", "cislo": 45, "kod_obec": "598917", "naz_obec": "Karviná"}}, {"type": "Feature", "geometry": {"type": "Polygon", "coordinates": [[[18.562, 49.857], [18.563, 49.854], [18.56, 49.854], [18.559, 49.854], [18.559, 49.854], [18.56, 49.856], [18.562, 49.857]]]}, "properties": {"kod": "1311", "cislo": 46, "kod_obec": "598917", "naz_obec": "Karviná"}}, {"type": "Feature", "geometry": {"type": "Polygon", "coordinates": [[[18.564, 49.857], [18.564, 49.854], [18.563, 49.854], [18.562, 49.857], [18.564, 49.857]]]}, "properties": {"kod": "1313", "cislo": 47, "kod_obec": "598917", "naz_obec": "Karviná"}}, {"type": "Feature", "geometry": {"type": "Polygon", "coordinates": [[[18.559, 49.858], [18.563, 49.858], [18.564, 49.857], [18.562, 49.857], [18.56, 49.856], [18.559, 49.857], [18.557, 49.858], [18.559, 49.858]]]}, "properties": {"kod": "1315", "cislo": 48, "kod_obec": "598917", "naz_obec": "Karviná"}}, {"type": "Feature", "geometry": {"type": "Polygon", "coordinates": [[[18.566, 49.86], [18.563, 49.858], [18.559, 49.858], [18.558, 49.86], [18.56, 49.861], [18.566, 49.86]]]}, "properties": {"kod": "1317", "cislo": 49, "kod_obec": "598917", "naz_obec": "Karviná"}}, {"type": "Feature", "geometry": {"type": "Polygon", "coordinates": [[[18.573, 49.861], [18.577, 49.859], [18.575, 49.858], [18.575, 49.856], [18.574, 49.854], [18.569, 49.854], [18.564, 49.854], [18.564, 49.857], [18.563, 49.858], [18.566, 49.86], [18.572, 49.862], [18.573, 49.861]]]}, "properties": {"kod": "1319", "cislo": 50, "kod_obec": "598917", "naz_obec": "Karviná"}}, {"type": "Feature", "geometry": {"type": "Polygon", "coordinates": [[[18.554, 49.862], [18.558, 49.86], [18.559, 49.858], [18.557, 49.858], [18.559, 49.857], [18.557, 49.856], [18.554, 49.858], [18.553, 49.861], [18.554, 49.862]]]}, "properties": {"kod": "1321", "cislo": 51, "kod_obec": "598917", "naz_obec": "Karviná"}}, {"type": "Feature", "geometry": {"type": "Polygon", "coordinates": [[[18.58, 49.867], [18.58, 49.867], [18.58, 49.862], [18.573, 49.861], [18.572, 49.862], [18.566, 49.86], [18.56, 49.861], [18.558, 49.86], [18.554, 49.862], [18.558, 49.864], [18.56, 49.864], [18.57, 49.868], [18.574, 49.867], [18.58, 49.867]]]}, "properties": {"kod": "1323", "cislo": 52, "kod_obec": "598917", "naz_obec": "Karviná"}}, {"type": "Feature", "geometry": {"type": "Polygon", "coordinates": [[[18.554, 49.867], [18.555, 49.868], [18.556, 49.866], [18.554, 49.865], [18.557, 49.864], [18.558, 49.864], [18.554, 49.862], [18.553, 49.861], [18.548, 49.86], [18.547, 49.858], [18.548, 49.862], [18.547, 49.866], [18.55, 49.867], [18.554, 49.867]]]}, "properties": {"kod": "1325", "cislo": 53, "kod_obec": "598917", "naz_obec": "Karviná"}}, {"type": "Feature", "geometry": {"type": "Polygon", "coordinates": [[[18.557, 49.864], [18.554, 49.865], [18.556, 49.866], [18.556, 49.865], [18.557, 49.864]]]}, "properties": {"kod": "1327", "cislo": 54, "kod_obec": "598917", "naz_obec": "Karviná"}}, {"type": "Feature", "geometry": {"type": "Polygon", "coordinates": [[[18.556, 49.866], [18.56, 49.867], [18.56, 49.864], [18.558, 49.864], [18.557, 49.864], [18.556, 49.865], [18.556, 49.866]]]}, "properties": {"kod": "1329", "cislo": 55, "kod_obec": "598917", "naz_obec": "Karviná"}}, {"type": "Feature", "geometry": {"type": "Polygon", "coordinates": [[[18.56, 49.874], [18.564, 49.872], [18.57, 49.875], [18.57, 49.873], [18.58, 49.869], [18.58, 49.867], [18.574, 49.867], [18.57, 49.868], [18.56, 49.864], [18.56, 49.867], [18.559, 49.87], [18.556, 49.871], [18.553, 49.871], [18.56, 49.874]]]}, "properties": {"kod": "1331", "cislo": 56, "kod_obec": "598917", "naz_obec": "Karviná"}}, {"type": "Feature", "geometry": {"type": "Polygon", "coordinates": [[[18.555, 49.868], [18.559, 49.87], [18.56, 49.867], [18.556, 49.866], [18.555, 49.868]]]}, "properties": {"kod": "1333", "cislo": 57, "kod_obec": "598917", "naz_obec": "Karviná"}}, {"type": "Feature", "geometry": {"type": "Polygon", "coordinates": [[[18.559, 49.87], [18.555, 49.868], [18.554, 49.867], [18.553, 49.869], [18.555, 49.869], [18.556, 49.871], [18.559, 49.87]]]}, "properties": {"kod": "1335", "cislo": 58, "kod_obec": "598917", "naz_obec": "Karviná"}}, {"type": "Feature", "geometry": {"type": "Polygon", "coordinates": [[[18.553, 49.869], [18.553, 49.871], [18.556, 49.871], [18.555, 49.869], [18.553, 49.869], [18.553, 49.869]]]}, "properties": {"kod": "1337", "cislo": 59, "kod_obec": "598917", "naz_obec": "Karviná"}}, {"type": "Feature", "geometry": {"type": "Polygon", "coordinates": [[[18.553, 49.869], [18.553, 49.869], [18.554, 49.867], [18.55, 49.867], [18.553, 49.869]]]}, "properties": {"kod": "1339", "cislo": 33, "kod_obec": "598917", "naz_obec": "Karviná"}}, {"type": "Feature", "geometry": {"type": "Polygon", "coordinates": [[[18.541, 49.877], [18.541, 49.88], [18.56, 49.874], [18.553, 49.871], [18.553, 49.869], [18.55, 49.867], [18.547, 49.866], [18.546, 49.868], [18.541, 49.877]]]}, "properties": {"kod": "1341", "cislo": 34, "kod_obec": "598917", "naz_obec": "Karviná"}}, {"type": "Feature", "geometry": {"type": "Polygon", "coordinates": [[[18.536, 49.832], [18.549, 49.839], [18.556, 49.839], [18.561, 49.839], [18.568, 49.832], [18.569, 49.833], [18.57, 49.827], [18.583, 49.818], [18.582, 49.81], [18.585, 49.805], [18.593, 49.802], [18.593, 49.798], [18.598, 49.792], [18.591, 49.791], [18.595, 49.787], [18.594, 49.783], [18.59, 49.789], [18.574, 49.785], [18.576, 49.782], [18.573, 49.781], [18.566, 49.782], [18.561, 49.78], [18.559, 49.782], [18.561, 49.785], [18.558, 49.789], [18.559, 49.794], [18.558, 49.794], [18.56, 49.796], [18.562, 49.807], [18.559, 49.816], [18.552, 49.821], [18.555, 49.822], [18.542, 49.829], [18.543, 49.833], [18.536, 49.832]]]}, "properties": {"kod": "1343", "cislo": 2, "kod_obec": "598917", "naz_obec": "Karviná"}}]}