{"features":[{"geometry":{"type":"Polygon","coordinates":[[[18.55271272337988,49.86879302866771],[18.552566656770825,49.86851925868389],[18.555151211560062,49.868623209815375],[18.555870142105903,49.87060860634341],[18.553237798648496,49.870659094647344],[18.55271272337988,49.86879302866771]]],"crs":null},"type":"Feature","properties":{"kod":1337,"naz_obec":"Karviná","cislo":3,"kod_obec":"598917"}},{"geometry":{"type":"Polygon","coordinates":[[[18.55271272337988,49.86879302866771],[18.549725317672152,49.86658280971816],[18.553885055368422,49.86710189366109],[18.552566656770825,49.86851925868389],[18.55271272337988,49.86879302866771]]],"crs":null},"type":"Feature","properties":{"kod":1339,"naz_obec":"Karviná","cislo":33,"kod_obec":"598917"}},{"geometry":{"type":"Polygon","coordinates":[[[18.552639555140214,49.85046342547548],[18.55045422911326,49.85016869141309],[18.550814360466656,49.84964362294799],[18.552843656738272,49.848080044743256],[18.554268408729286,49.84877057228079],[18.552639555140214,49.85046342547548]]],"crs":null},"type":"Feature","properties":{"kod":1261,"naz_obec":"Karviná","cislo":21,"kod_obec":"598917"}},{"geometry":{"type":"Polygon","coordinates":[[[18.526578214070238,49.861531623698305],[18.523879177729178,49.85156534747157],[18.509073148279196,49.851046470176165],[18.501643735394012,49.855441971145936],[18.492185917571465,49.84876564536331],[18.48513243891571,49.85298223501594],[18.479493465830817,49.8529680255031],[18.465937891580964,49.84661615705142],[18.45397175475587,49.84484593967297],[18.449962269100048,49.84335440808652],[18.459108804583348,49.83362592030907],[18.452464527326534,49.81820272949791],[18.45725910142001,49.81562255339694],[18.470012756867504,49.816766885528864],[18.46946458295234,49.81574381065707],[18.473861300962156,49.81771898349414],[18.47682709760615,49.81610384722342],[18.482358371439194,49.81891259726159],[18.48346071074118,49.81624380368529],[18.496331870712737,49.8165025105941],[18.505143847341195,49.81993632564133],[18.512365024511993,49.82517185903845],[18.519686723952805,49.82632302756473],[18.52359916278439,49.83271947829527],[18.525422658641027,49.83069287420176],[18.529977888664583,49.83203263352275],[18.514705467031714,49.839159146496236],[18.517622796792217,49.844658538467876],[18.515775088764666,49.84705668571893],[18.524260823677505,49.848575925982],[18.525814200792635,49.846217348405865],[18.530178037226996,49.84612124501621],[18.533346964901096,49.8438389896961],[18.538321564194675,49.847619763473716],[18.544758987438794,49.84846441357493],[18.547391679495973,49.84659447825947],[18.550814360466656,49.84964362294799],[18.55045422911326,49.85016869141309],[18.549866550771178,49.853148419064716],[18.5499678532448,49.8538001239124],[18.547161591006564,49.856126357882694],[18.546007928785087,49.856653241559485],[18.54158974509805,49.85712478262678],[18.53982603110624,49.85667170866024],[18.528443941154787,49.86051661814704],[18.526578214070238,49.861531623698305]]],"crs":null},"type":"Feature","properties":{"kod":1221,"naz_obec":"Karviná","cislo":1,"kod_obec":"598917"}},{"geometry":{"type":"Polygon","coordinates":[[[18.515775088764666,49.84705668571893],[18.517622796792217,49.844658538467876],[18.514705467031714,49.839159146496236],[18.529977888664583,49.83203263352275],[18.53649956595771,49.83217612433393],[18.549158773586583,49.83874915636284],[18.555535005769393,49.83928206047585],[18.552279565251865,49.84149547903616],[18.547391679495973,49.84659447825947],[18.544758987438794,49.84846441357493],[18.538321564194675,49.847619763473716],[18.533346964901096,49.8438389896961],[18.530178037226996,49.84612124501621],[18.525814200792635,49.846217348405865],[18.524260823677505,49.848575925982],[18.515775088764666,49.84705668571893]]],"crs":null},"type":"Feature","properties":{"kod":1227,"naz_obec":"Karviná","cislo":4,"kod_obec":"598917"}},{"geometry":{"type":"Polygon","coordinates":[[[18.559900405569888,49.85042266323597],[18.558891921581868,49.84992804062882],[18.5596638903306,49.84927128098101],[18.56339461038402,49.84903840137861],[18.565242138125814,49.85005627800048],[18.564159154251964,49.85103403016668],[18.561382014887432,49.849689081261054],[18.559900405569888,49.85042266323597]]],"crs":null},"type":"Feature","properties":{"kod":1229,"naz_obec":"Karviná","cislo":5,"kod_obec":"598917"}},{"geometry":{"type":"Polygon","coordinates":[[[18.58749895786667,49.844269613417154],[18.581953586421356,49.851155121804844],[18.578883287975955,49.84762664338726],[18.580720293602504,49.84710521507194],[18.57878526803993,49.845796298310376],[18.57986452406293,49.843349556203975],[18.576345215359105,49.841472727315804],[18.559891286840756,49.84449691753777],[18.557411332294198,49.842093817135456],[18.554683294529347,49.843872825310534],[18.555902279979627,49.84160153067821],[18.552279565251865,49.84149547903616],[18.555535005769393,49.83928206047585],[18.560562653925306,49.838780107096916],[18.568450883734087,49.83232406006062],[18.568958307169005,49.833228105900005],[18.58749895786667,49.844269613417154]]],"crs":null},"type":"Feature","properties":{"kod":1231,"naz_obec":"Karviná","cislo":6,"kod_obec":"598917"}},{"geometry":{"type":"Polygon","coordinates":[[[18.589023095777183,49.852846211595434],[18.591894710788008,49.85601605565581],[18.603922232611325,49.85708735544754],[18.605772592332116,49.861572207024366],[18.599164537434163,49.86627241163821],[18.59040524017536,49.867587386643294],[18.58033985572331,49.866764096110145],[18.58035300003807,49.86234761649898],[18.57330976861012,49.86077274317129],[18.57658491628424,49.858918070789436],[18.574531930211332,49.858169701783915],[18.575398274375456,49.855611141184475],[18.574353975103797,49.85392120924584],[18.569374301351715,49.85416297561063],[18.569346298400383,49.85214391546511],[18.565242138125814,49.85005627800048],[18.56339461038402,49.84903840137861],[18.55830996204064,49.84663670468472],[18.55672972091617,49.84561963565156],[18.559891286840756,49.84449691753777],[18.576345215359105,49.841472727315804],[18.57986452406293,49.843349556203975],[18.57878526803993,49.845796298310376],[18.580720293602504,49.84710521507194],[18.578883287975955,49.84762664338726],[18.581953586421356,49.851155121804844],[18.58749895786667,49.844269613417154],[18.58973935461423,49.84623547958307],[18.583756547025818,49.85227946836465],[18.589023095777183,49.852846211595434]]],"crs":null},"type":"Feature","properties":{"kod":1233,"naz_obec":"Karviná","cislo":7,"kod_obec":"598917"}},{"geometry":{"type":"Polygon","coordinates":[[[18.550814360466656,49.84964362294799],[18.547391679495973,49.84659447825947],[18.552279565251865,49.84149547903616],[18.555902279979627,49.84160153067821],[18.554683294529347,49.843872825310534],[18.557411332294198,49.842093817135456],[18.559891286840756,49.84449691753777],[18.55672972091617,49.84561963565156],[18.55830996204064,49.84663670468472],[18.557461500118173,49.84734784643224],[18.556143222683268,49.847323762446784],[18.554549146132334,49.846703462193986],[18.552843656738272,49.848080044743256],[18.550814360466656,49.84964362294799]]],"crs":null},"type":"Feature","properties":{"kod":1235,"naz_obec":"Karviná","cislo":8,"kod_obec":"598917"}},{"geometry":{"type":"Polygon","coordinates":[[[18.555199878763283,49.84922190943975],[18.554268408729286,49.84877057228079],[18.552843656738272,49.848080044743256],[18.554549146132334,49.846703462193986],[18.556143222683268,49.847323762446784],[18.555386496006697,49.849312283231235],[18.555199878763283,49.84922190943975]]],"crs":null},"type":"Feature","properties":{"kod":1237,"naz_obec":"Karviná","cislo":9,"kod_obec":"598917"}},{"geometry":{"type":"Polygon","coordinates":[[[18.557697636228156,49.850701292519965],[18.555386496006697,49.849312283231235],[18.556143222683268,49.847323762446784],[18.557461500118173,49.84734784643224],[18.5596638903306,49.84927128098101],[18.558891921581868,49.84992804062882],[18.557697636228156,49.850701292519965]]],"crs":null},"type":"Feature","properties":{"kod":1239,"naz_obec":"Karviná","cislo":10,"kod_obec":"598917"}},{"geometry":{"type":"Polygon","coordinates":[[[18.5596638903306,49.84927128098101],[18.557461500118173,49.84734784643224],[18.55830996204064,49.84663670468472],[18.56339461038402,49.84903840137861],[18.5596638903306,49.84927128098101]]],"crs":null},"type":"Feature","properties":{"kod":1241,"naz_obec":"Karviná","cislo":11,"kod_obec":"598917"}},{"geometry":{"type":"Polygon","coordinates":[[[18.564378282965414,49.85317355872153],[18.564159154251964,49.85103403016668],[18.565242138125814,49.85005627800048],[18.569346298400383,49.85214391546511],[18.569374301351715,49.85416297561063],[18.56425812039262,49.853965760835514],[18.564378282965414,49.85317355872153]]],"crs":null},"type":"Feature","properties":{"kod":1245,"naz_obec":"Karviná","cislo":13,"kod_obec":"598917"}},{"geometry":{"type":"Polygon","coordinates":[[[18.559363342492755,49.85381597237927],[18.559900405569888,49.85042266323597],[18.561382014887432,49.849689081261054],[18.564159154251964,49.85103403016668],[18.564378282965414,49.85317355872153],[18.56025059145425,49.852300897802806],[18.560098429550656,49.85380410506397],[18.559363342492755,49.85381597237927]]],"crs":null},"type":"Feature","properties":{"kod":1247,"naz_obec":"Karviná","cislo":14,"kod_obec":"598917"}},{"geometry":{"type":"Polygon","coordinates":[[[18.557615959732725,49.85203667451043],[18.557697636228156,49.850701292519965],[18.558891921581868,49.84992804062882],[18.559900405569888,49.85042266323597],[18.559363342492755,49.85381597237927],[18.558671837452707,49.85383510947018],[18.557439551532145,49.853883988794635],[18.557615959732725,49.85203667451043]]],"crs":null},"type":"Feature","properties":{"kod":1249,"naz_obec":"Karviná","cislo":15,"kod_obec":"598917"}},{"geometry":{"type":"Polygon","coordinates":[[[18.562757354422576,49.853949132773295],[18.560098429550656,49.85380410506397],[18.56025059145425,49.852300897802806],[18.564378282965414,49.85317355872153],[18.56425812039262,49.853965760835514],[18.562757354422576,49.853949132773295]]],"crs":null},"type":"Feature","properties":{"kod":1251,"naz_obec":"Karviná","cislo":16,"kod_obec":"598917"}},{"geometry":{"type":"Polygon","coordinates":[[[18.55371611614292,49.85389482342264],[18.555430121037123,49.851536615232796],[18.557615959732725,49.85203667451043],[18.557439551532145,49.853883988794635],[18.55371611614292,49.85389482342264]]],"crs":null},"type":"Feature","properties":{"kod":1253,"naz_obec":"Karviná","cislo":17,"kod_obec":"598917"}},{"geometry":{"type":"Polygon","coordinates":[[[18.555430121037123,49.851536615232796],[18.555199878763283,49.84922190943975],[18.555386496006697,49.849312283231235],[18.557697636228156,49.850701292519965],[18.557615959732725,49.85203667451043],[18.555430121037123,49.851536615232796]]],"crs":null},"type":"Feature","properties":{"kod":1255,"naz_obec":"Karviná","cislo":18,"kod_obec":"598917"}},{"geometry":{"type":"Polygon","coordinates":[[[18.5499678532448,49.8538001239124],[18.549866550771178,49.853148419064716],[18.552639555140214,49.85046342547548],[18.554268408729286,49.84877057228079],[18.555199878763283,49.84922190943975],[18.555430121037123,49.851536615232796],[18.55371611614292,49.85389482342264],[18.55197552657131,49.85382644015038],[18.5499678532448,49.8538001239124]]],"crs":null},"type":"Feature","properties":{"kod":1257,"naz_obec":"Karviná","cislo":19,"kod_obec":"598917"}},{"geometry":{"type":"Polygon","coordinates":[[[18.549866550771178,49.853148419064716],[18.55045422911326,49.85016869141309],[18.552639555140214,49.85046342547548],[18.549866550771178,49.853148419064716]]],"crs":null},"type":"Feature","properties":{"kod":1259,"naz_obec":"Karviná","cislo":20,"kod_obec":"598917"}},{"geometry":{"type":"Polygon","coordinates":[[[18.497299683106075,49.89134637731575],[18.497390272359823,49.87733612342753],[18.48978881530052,49.87435034458461],[18.487940024984837,49.87382852273351],[18.48740727640907,49.87017435891787],[18.490754702220986,49.87193750922658],[18.493074765273956,49.86980305430581],[18.489879785849773,49.867396730514095],[18.498440319528907,49.863645384060234],[18.495815000128154,49.86005973472899],[18.49810065920636,49.85917016629528],[18.49934341806857,49.86016943869962],[18.501643735394012,49.855441971145936],[18.509073148279196,49.851046470176165],[18.523879177729178,49.85156534747157],[18.526578214070238,49.861531623698305],[18.52296817827945,49.86409394785753],[18.52510358910038,49.86530616566577],[18.524974087042246,49.87018839744465],[18.530837793245052,49.870281299782185],[18.53861422281345,49.87268892813271],[18.537036141771694,49.87408339686582],[18.5292373473112,49.87857283966518],[18.518142847193584,49.87798812432291],[18.514736970816948,49.883408844012415],[18.508910296404565,49.8829757686178],[18.50637853590086,49.89361584240045],[18.497299683106075,49.89134637731575]]],"crs":null},"type":"Feature","properties":{"kod":1263,"naz_obec":"Karviná","cislo":22,"kod_obec":"598917"}},{"geometry":{"type":"Polygon","coordinates":[[[18.546933480166512,49.86607090178009],[18.547145979088118,49.861208957977084],[18.545379845598916,49.85969774094951],[18.543757313367866,49.86061533882831],[18.540437177534475,49.85966822958268],[18.540817401286397,49.858856406393045],[18.54158974509805,49.85712478262678],[18.546007928785087,49.856653241559485],[18.548265643642825,49.859758716186114],[18.549456161794733,49.86641786552299],[18.546933480166512,49.86607090178009]]],"crs":null},"type":"Feature","properties":{"kod":1265,"naz_obec":"Karviná","cislo":23,"kod_obec":"598917"}},{"geometry":{"type":"Polygon","coordinates":[[[18.543202637941736,49.86176635268938],[18.53967940908631,49.86128588204793],[18.540437177534475,49.85966822958268],[18.543757313367866,49.86061533882831],[18.543202637941736,49.86176635268938]]],"crs":null},"type":"Feature","properties":{"kod":1267,"naz_obec":"Karviná","cislo":24,"kod_obec":"598917"}},{"geometry":{"type":"Polygon","coordinates":[[[18.547145979088118,49.861208957977084],[18.546757259635502,49.86222754552026],[18.543202637941736,49.86176635268938],[18.543757313367866,49.86061533882831],[18.545379845598916,49.85969774094951],[18.547145979088118,49.861208957977084]]],"crs":null},"type":"Feature","properties":{"kod":1269,"naz_obec":"Karviná","cislo":25,"kod_obec":"598917"}},{"geometry":{"type":"Polygon","coordinates":[[[18.546933480166512,49.86607090178009],[18.542359802819732,49.86503241908615],[18.544436136154292,49.86239060788361],[18.539258694470107,49.8621764621233],[18.53967940908631,49.86128588204793],[18.543202637941736,49.86176635268938],[18.546757259635502,49.86222754552026],[18.547145979088118,49.861208957977084],[18.546933480166512,49.86607090178009]]],"crs":null},"type":"Feature","properties":{"kod":1271,"naz_obec":"Karviná","cislo":26,"kod_obec":"598917"}},{"geometry":{"type":"Polygon","coordinates":[[[18.542359802819732,49.86503241908615],[18.53820859193515,49.86443407343976],[18.539258694470107,49.8621764621233],[18.544436136154292,49.86239060788361],[18.542359802819732,49.86503241908615]]],"crs":null},"type":"Feature","properties":{"kod":1273,"naz_obec":"Karviná","cislo":27,"kod_obec":"598917"}},{"geometry":{"type":"Polygon","coordinates":[[[18.537036141771694,49.87408339686582],[18.53861422281345,49.87268892813271],[18.530837793245052,49.870281299782185],[18.532631505510526,49.86885338464297],[18.535914414950316,49.869707773571264],[18.53820859193515,49.86443407343976],[18.542359802819732,49.86503241908615],[18.546933480166512,49.86607090178009],[18.540869868678303,49.87715523108517],[18.537036141771694,49.87408339686582]]],"crs":null},"type":"Feature","properties":{"kod":1275,"naz_obec":"Karviná","cislo":28,"kod_obec":"598917"}},{"geometry":{"type":"Polygon","coordinates":[[[18.52510358910038,49.86530616566577],[18.52296817827945,49.86409394785753],[18.526578214070238,49.861531623698305],[18.528443941154787,49.86051661814704],[18.53346665773482,49.86356830416298],[18.53820859193515,49.86443407343976],[18.535914414950316,49.869707773571264],[18.532631505510526,49.86885338464297],[18.530837793245052,49.870281299782185],[18.524974087042246,49.87018839744465],[18.52510358910038,49.86530616566577]]],"crs":null},"type":"Feature","properties":{"kod":1279,"naz_obec":"Karviná","cislo":30,"kod_obec":"598917"}},{"geometry":{"type":"Polygon","coordinates":[[[18.53346665773482,49.86356830416298],[18.53422817609245,49.861917683773356],[18.539258694470107,49.8621764621233],[18.53820859193515,49.86443407343976],[18.53346665773482,49.86356830416298]]],"crs":null},"type":"Feature","properties":{"kod":1289,"naz_obec":"Karviná","cislo":35,"kod_obec":"598917"}},{"geometry":{"type":"Polygon","coordinates":[[[18.539258694470107,49.8621764621233],[18.53422817609245,49.861917683773356],[18.534950019161023,49.860372111850275],[18.537072031106927,49.860411253304655],[18.53967940908631,49.86128588204793],[18.539258694470107,49.8621764621233]]],"crs":null},"type":"Feature","properties":{"kod":1291,"naz_obec":"Karviná","cislo":36,"kod_obec":"598917"}},{"geometry":{"type":"Polygon","coordinates":[[[18.53346665773482,49.86356830416298],[18.528443941154787,49.86051661814704],[18.53982603110624,49.85667170866024],[18.537731104256594,49.85771796962458],[18.537072031106927,49.860411253304655],[18.534950019161023,49.860372111850275],[18.53422817609245,49.861917683773356],[18.53346665773482,49.86356830416298]]],"crs":null},"type":"Feature","properties":{"kod":1293,"naz_obec":"Karviná","cislo":37,"kod_obec":"598917"}},{"geometry":{"type":"Polygon","coordinates":[[[18.537072031106927,49.860411253304655],[18.537731104256594,49.85771796962458],[18.540817401286397,49.858856406393045],[18.540437177534475,49.85966822958268],[18.53967940908631,49.86128588204793],[18.537072031106927,49.860411253304655]]],"crs":null},"type":"Feature","properties":{"kod":1295,"naz_obec":"Karviná","cislo":38,"kod_obec":"598917"}},{"geometry":{"type":"Polygon","coordinates":[[[18.540817401286397,49.858856406393045],[18.537731104256594,49.85771796962458],[18.53982603110624,49.85667170866024],[18.54158974509805,49.85712478262678],[18.540817401286397,49.858856406393045]]],"crs":null},"type":"Feature","properties":{"kod":1297,"naz_obec":"Karviná","cislo":39,"kod_obec":"598917"}},{"geometry":{"type":"Polygon","coordinates":[[[18.547161591006564,49.856126357882694],[18.5499678532448,49.8538001239124],[18.55197552657131,49.85382644015038],[18.551303376947676,49.85501580056403],[18.54988702907458,49.85629135461085],[18.54864503104611,49.857416499635505],[18.547161591006564,49.856126357882694]]],"crs":null},"type":"Feature","properties":{"kod":1299,"naz_obec":"Karviná","cislo":40,"kod_obec":"598917"}},{"geometry":{"type":"Polygon","coordinates":[[[18.55294263674465,49.861309610551416],[18.548265643642825,49.859758716186114],[18.546007928785087,49.856653241559485],[18.547161591006564,49.856126357882694],[18.54864503104611,49.857416499635505],[18.54988702907458,49.85629135461085],[18.55371402728174,49.858150572575596],[18.55294263674465,49.861309610551416]]],"crs":null},"type":"Feature","properties":{"kod":1301,"naz_obec":"Karviná","cislo":41,"kod_obec":"598917"}},{"geometry":{"type":"Polygon","coordinates":[[[18.55371402728174,49.858150572575596],[18.54988702907458,49.85629135461085],[18.551303376947676,49.85501580056403],[18.55429267550456,49.856059691135535],[18.55371402728174,49.858150572575596]]],"crs":null},"type":"Feature","properties":{"kod":1303,"naz_obec":"Karviná","cislo":42,"kod_obec":"598917"}},{"geometry":{"type":"Polygon","coordinates":[[[18.551303376947676,49.85501580056403],[18.55197552657131,49.85382644015038],[18.55371611614292,49.85389482342264],[18.557439551532145,49.853883988794635],[18.55735578270771,49.85489957375235],[18.55429267550456,49.856059691135535],[18.551303376947676,49.85501580056403]]],"crs":null},"type":"Feature","properties":{"kod":1305,"naz_obec":"Karviná","cislo":43,"kod_obec":"598917"}},{"geometry":{"type":"Polygon","coordinates":[[[18.55717347335242,49.85626587389115],[18.55371402728174,49.858150572575596],[18.55429267550456,49.856059691135535],[18.55735578270771,49.85489957375235],[18.55717347335242,49.85626587389115]]],"crs":null},"type":"Feature","properties":{"kod":1307,"naz_obec":"Karviná","cislo":44,"kod_obec":"598917"}},{"geometry":{"type":"Polygon","coordinates":[[[18.560134733369836,49.856368099332116],[18.55872775115155,49.85655944967279],[18.55717347335242,49.85626587389115],[18.55735578270771,49.85489957375235],[18.557439551532145,49.853883988794635],[18.558671837452707,49.85383510947018],[18.560134733369836,49.856368099332116]]],"crs":null},"type":"Feature","properties":{"kod":1309,"naz_obec":"Karviná","cislo":45,"kod_obec":"598917"}},{"geometry":{"type":"Polygon","coordinates":[[[18.561943288834073,49.856674491405826],[18.560134733369836,49.856368099332116],[18.558671837452707,49.85383510947018],[18.559363342492755,49.85381597237927],[18.560098429550656,49.85380410506397],[18.562757354422576,49.853949132773295],[18.561943288834073,49.856674491405826]]],"crs":null},"type":"Feature","properties":{"kod":1311,"naz_obec":"Karviná","cislo":46,"kod_obec":"598917"}},{"geometry":{"type":"Polygon","coordinates":[[[18.57330976861012,49.86077274317129],[18.571506113657325,49.862084403256425],[18.56567825626751,49.85966975469668],[18.563216542456765,49.85842332895688],[18.561943288834073,49.856674491405826],[18.562757354422576,49.853949132773295],[18.56425812039262,49.853965760835514],[18.569374301351715,49.85416297561063],[18.574353975103797,49.85392120924584],[18.575398274375456,49.855611141184475],[18.574531930211332,49.858169701783915],[18.57658491628424,49.858918070789436],[18.57330976861012,49.86077274317129]]],"crs":null},"type":"Feature","properties":{"kod":1313,"naz_obec":"Karviná","cislo":47,"kod_obec":"598917"}},{"geometry":{"type":"Polygon","coordinates":[[[18.558979789437654,49.85840297723786],[18.557444876548672,49.85765652832045],[18.55872775115155,49.85655944967279],[18.560134733369836,49.856368099332116],[18.561943288834073,49.856674491405826],[18.563216542456765,49.85842332895688],[18.558979789437654,49.85840297723786]]],"crs":null},"type":"Feature","properties":{"kod":1315,"naz_obec":"Karviná","cislo":48,"kod_obec":"598917"}},{"geometry":{"type":"Polygon","coordinates":[[[18.56567825626751,49.85966975469668],[18.560001629511728,49.860954584861744],[18.557594581743622,49.86006047941068],[18.558979789437654,49.85840297723786],[18.563216542456765,49.85842332895688],[18.56567825626751,49.85966975469668]]],"crs":null},"type":"Feature","properties":{"kod":1317,"naz_obec":"Karviná","cislo":49,"kod_obec":"598917"}},{"geometry":{"type":"Polygon","coordinates":[[[18.55449022486498,49.86219173319548],[18.55294263674465,49.861309610551416],[18.55371402728174,49.858150572575596],[18.55717347335242,49.85626587389115],[18.55872775115155,49.85655944967279],[18.557444876548672,49.85765652832045],[18.558979789437654,49.85840297723786],[18.557594581743622,49.86006047941068],[18.55449022486498,49.86219173319548]]],"crs":null},"type":"Feature","properties":{"kod":1321,"naz_obec":"Karviná","cislo":51,"kod_obec":"598917"}},{"geometry":{"type":"Polygon","coordinates":[[[18.580282884251837,49.866762166194164],[18.57432049386528,49.86655454509939],[18.569832852877525,49.86824394397681],[18.5595757383729,49.86443316106379],[18.558058508522322,49.86376678042634],[18.55449022486498,49.86219173319548],[18.557594581743622,49.86006047941068],[18.560001629511728,49.860954584861744],[18.56567825626751,49.85966975469668],[18.571506113657325,49.862084403256425],[18.57330976861012,49.86077274317129],[18.58035300003807,49.86234761649898],[18.58033985572331,49.866764096110145],[18.580282884251837,49.866762166194164]]],"crs":null},"type":"Feature","properties":{"kod":1323,"naz_obec":"Karviná","cislo":52,"kod_obec":"598917"}},{"geometry":{"type":"Polygon","coordinates":[[[18.553885055368422,49.86710189366109],[18.549725317672152,49.86658280971816],[18.549456161794733,49.86641786552299],[18.548265643642825,49.859758716186114],[18.55294263674465,49.861309610551416],[18.55449022486498,49.86219173319548],[18.558058508522322,49.86376678042634],[18.555669496029402,49.86643125241135],[18.55528400659719,49.867580374361275],[18.553885055368422,49.86710189366109]]],"crs":null},"type":"Feature","properties":{"kod":1327,"naz_obec":"Karviná","cislo":50,"kod_obec":"598917"}},{"geometry":{"type":"Polygon","coordinates":[[[18.555669496029402,49.86643125241135],[18.558058508522322,49.86376678042634],[18.5595757383729,49.86443316106379],[18.560413578228367,49.86730639530682],[18.555669496029402,49.86643125241135]]],"crs":null},"type":"Feature","properties":{"kod":1329,"naz_obec":"Karviná","cislo":32,"kod_obec":"598917"}},{"geometry":{"type":"Polygon","coordinates":[[[18.55973813513764,49.873616021062574],[18.553237798648496,49.870659094647344],[18.555870142105903,49.87060860634341],[18.558805154743375,49.86953641522625],[18.560413578228367,49.86730639530682],[18.5595757383729,49.86443316106379],[18.569832852877525,49.86824394397681],[18.57432049386528,49.86655454509939],[18.580282884251837,49.866762166194164],[18.5796684665812,49.86933758508652],[18.56963265346165,49.87341718676001],[18.56984136017688,49.87501192115032],[18.56394624368462,49.87166399880516],[18.55973813513764,49.873616021062574]]],"crs":null},"type":"Feature","properties":{"kod":1331,"naz_obec":"Karviná","cislo":31,"kod_obec":"598917"}},{"geometry":{"type":"Polygon","coordinates":[[[18.55528400659719,49.867580374361275],[18.555669496029402,49.86643125241135],[18.560413578228367,49.86730639530682],[18.558805154743375,49.86953641522625],[18.55528400659719,49.867580374361275]]],"crs":null},"type":"Feature","properties":{"kod":1333,"naz_obec":"Karviná","cislo":29,"kod_obec":"598917"}},{"geometry":{"type":"Polygon","coordinates":[[[18.555870142105903,49.87060860634341],[18.555151211560062,49.868623209815375],[18.552566656770825,49.86851925868389],[18.553885055368422,49.86710189366109],[18.55528400659719,49.867580374361275],[18.558805154743375,49.86953641522625],[18.555870142105903,49.87060860634341]]],"crs":null},"type":"Feature","properties":{"kod":1335,"naz_obec":"Karviná","cislo":12,"kod_obec":"598917"}},{"geometry":{"type":"Polygon","coordinates":[[[18.540869868678303,49.87715523108517],[18.546933480166512,49.86607090178009],[18.549456161794733,49.86641786552299],[18.549725317672152,49.86658280971816],[18.55271272337988,49.86879302866771],[18.553237798648496,49.870659094647344],[18.55973813513764,49.873616021062574],[18.541302048628683,49.87952752287263],[18.540869868678303,49.87715523108517]]],"crs":null},"type":"Feature","properties":{"kod":1341,"naz_obec":"Karviná","cislo":34,"kod_obec":"598917"}},{"geometry":{"type":"Polygon","coordinates":[[[18.53649956595771,49.83217612433393],[18.54273671787052,49.83307383985363],[18.542144426870372,49.828998056910706],[18.555380482704233,49.82248847537267],[18.551975120479444,49.82120487399517],[18.559368276067136,49.81569809559518],[18.56215575456079,49.80660137433674],[18.5595328560567,49.79649407582556],[18.55765308488232,49.794305710734236],[18.559265635528547,49.79382761838124],[18.55808143342232,49.78909132963878],[18.561077017422342,49.78520077331219],[18.55852719063274,49.78223582129634],[18.56107800201032,49.780103584869806],[18.56587195580553,49.78152190082487],[18.573117433141714,49.78133745870473],[18.575898137545252,49.78220501145044],[18.574366834381053,49.784733025873514],[18.59019290050397,49.78872439841046],[18.593710668632024,49.783325138996396],[18.595249864901877,49.78705593722047],[18.59143089580353,49.79096178130033],[18.598047321103838,49.791708997552675],[18.592861923078978,49.79770309276445],[18.592589692337327,49.802192548582966],[18.585120739033037,49.805111613398985],[18.58239293713495,49.81030859893841],[18.582570465501025,49.817670757920496],[18.570185035000964,49.82701212302056],[18.568958307169005,49.833228105900005],[18.568450883734087,49.83232406006062],[18.560562653925306,49.838780107096916],[18.555535005769393,49.83928206047585],[18.549158773586583,49.83874915636284],[18.53649956595771,49.83217612433393]]],"crs":null},"type":"Feature","properties":{"kod":1343,"naz_obec":"Karviná","cislo":2,"kod_obec":"598917"}}],"type":"FeatureCollection","properties":{"exceededTransferLimit":false}}