{"type": "FeatureCollection", "features": [{"type": "Feature", "geometry": {"type": "Polygon", "coordinates": [[[17.992, 49.594], [17.997, 49.594], [17.998, 49.593], [17.998, 49.592], [17.997, 49.592], [17.994, 49.59], [17.99, 49.59], [17.991, 49.591], [17.99, 49.591], [17.989, 49.593], [17.992, 49.594]]]}, "properties": {"kod": "8875", "cislo": 1, "kod_obec": "599191", "naz_obec": "Nový Jičín"}}, {"type": "Feature", "geometry": {"type": "Polygon", "coordinates": [[[17.972, 49.607], [17.972, 49.607], [17.98, 49.605], [17.994, 49.598], [18, 49.595], [18, 49.593], [17.998, 49.593], [17.997, 49.594], [17.992, 49.594], [17.972, 49.607]]]}, "properties": {"kod": "8877", "cislo": 2, "kod_obec": "599191", "naz_obec": "Nový Jičín"}}, {"type": "Feature", "geometry": {"type": "Polygon", "coordinates": [[[17.994, 49.598], [17.999, 49.598], [18, 49.598], [18.002, 49.595], [18, 49.595], [17.994, 49.598]]]}, "properties": {"kod": "8879", "cislo": 3, "kod_obec": "599191", "naz_obec": "Nový Jičín"}}, {"type": "Feature", "geometry": {"type": "Polygon", "coordinates": [[[18, 49.598], [18.007, 49.597], [18.006, 49.596], [18.004, 49.594], [17.998, 49.592], [17.998, 49.593], [18, 49.593], [18, 49.595], [18.002, 49.595], [18, 49.598]]]}, "properties": {"kod": "8881", "cislo": 4, "kod_obec": "599191", "naz_obec": "Nový Jičín"}}, {"type": "Feature", "geometry": {"type": "Polygon", "coordinates": [[[17.999, 49.598], [18.007, 49.599], [18.01, 49.599], [18.006, 49.596], [18.007, 49.597], [18, 49.598], [17.999, 49.598]]]}, "properties": {"kod": "8883", "cislo": 5, "kod_obec": "599191", "naz_obec": "Nový Jičín"}}, {"type": "Feature", "geometry": {"type": "Polygon", "coordinates": [[[18.013, 49.595], [18.014, 49.594], [18.014, 49.593], [18.011, 49.593], [18.009, 49.59], [18.007, 49.589], [18.008, 49.589], [18.005, 49.587], [18.007, 49.589], [18.004, 49.591], [18.001, 49.59], [17.997, 49.592], [17.998, 49.592], [18.004, 49.594], [18.008, 49.595], [18.009, 49.594], [18.013, 49.595]]]}, "properties": {"kod": "8885", "cislo": 6, "kod_obec": "599191", "naz_obec": "Nový Jičín"}}, {"type": "Feature", "geometry": {"type": "Polygon", "coordinates": [[[17.997, 49.592], [18.001, 49.59], [18.004, 49.591], [18.007, 49.589], [18.005, 49.587], [18.006, 49.585], [18.008, 49.586], [18.011, 49.585], [18.011, 49.582], [18.005, 49.579], [17.996, 49.59], [17.994, 49.59], [17.997, 49.592]]]}, "properties": {"kod": "8887", "cislo": 7, "kod_obec": "599191", "naz_obec": "Nový Jičín"}}, {"type": "Feature", "geometry": {"type": "Polygon", "coordinates": [[[18.009, 49.59], [18.008, 49.589], [18.007, 49.589], [18.009, 49.59]], [[18.008, 49.586], [18.007, 49.588], [18.01, 49.591], [18.016, 49.59], [18.013, 49.586], [18.017, 49.578], [18.01, 49.577], [18.002, 49.57], [17.997, 49.572], [18.006, 49.578], [18.005, 49.579], [18.011, 49.582], [18.011, 49.585], [18.008, 49.586]]]}, "properties": {"kod": "8889", "cislo": 8, "kod_obec": "599191", "naz_obec": "Nový Jičín"}}, {"type": "Feature", "geometry": {"type": "Polygon", "coordinates": [[[18.014, 49.593], [18.022, 49.589], [18.024, 49.586], [18.024, 49.58], [18.017, 49.578], [18.013, 49.586], [18.016, 49.59], [18.01, 49.591], [18.007, 49.588], [18.008, 49.586], [18.006, 49.585], [18.005, 49.587], [18.008, 49.589], [18.009, 49.59], [18.011, 49.593], [18.014, 49.593]]]}, "properties": {"kod": "8891", "cislo": 9, "kod_obec": "599191", "naz_obec": "Nový Jičín"}}, {"type": "Feature", "geometry": {"type": "Polygon", "coordinates": [[[18.006, 49.596], [18.01, 49.599], [18.011, 49.597], [18.013, 49.595], [18.009, 49.594], [18.008, 49.595], [18.004, 49.594], [18.006, 49.596]]]}, "properties": {"kod": "8893", "cislo": 10, "kod_obec": "599191", "naz_obec": "Nový Jičín"}}, {"type": "Feature", "geometry": {"type": "Polygon", "coordinates": [[[18.031, 49.608], [18.042, 49.609], [18.044, 49.607], [18.032, 49.605], [18.034, 49.603], [18.031, 49.602], [18.031, 49.6], [18.028, 49.6], [18.025, 49.602], [18.02, 49.598], [18.017, 49.599], [18.019, 49.599], [18.016, 49.6], [18.019, 49.601], [18.018, 49.603], [18.015, 49.601], [18.015, 49.599], [18.014, 49.6], [18.01, 49.599], [18.007, 49.599], [18.031, 49.608]]]}, "properties": {"kod": "8895", "cislo": 11, "kod_obec": "599191", "naz_obec": "Nový Jičín"}}, {"type": "Feature", "geometry": {"type": "Polygon", "coordinates": [[[18.044, 49.607], [18.045, 49.607], [18.052, 49.601], [18.023, 49.594], [18.022, 49.596], [18.02, 49.596], [18.02, 49.598], [18.015, 49.599], [18.015, 49.601], [18.018, 49.603], [18.019, 49.601], [18.016, 49.6], [18.019, 49.599], [18.017, 49.599], [18.02, 49.598], [18.025, 49.602], [18.028, 49.6], [18.031, 49.6], [18.031, 49.602], [18.034, 49.603], [18.032, 49.605], [18.044, 49.607]]]}, "properties": {"kod": "8897", "cislo": 12, "kod_obec": "599191", "naz_obec": "Nový Jičín"}}, {"type": "Feature", "geometry": {"type": "Polygon", "coordinates": [[[18.011, 49.597], [18.015, 49.598], [18.017, 49.597], [18.013, 49.596], [18.017, 49.595], [18.018, 49.594], [18.016, 49.593], [18.014, 49.594], [18.013, 49.595], [18.011, 49.597]]]}, "properties": {"kod": "8899", "cislo": 13, "kod_obec": "599191", "naz_obec": "Nový Jičín"}}, {"type": "Feature", "geometry": {"type": "Polygon", "coordinates": [[[18.01, 49.599], [18.014, 49.6], [18.015, 49.599], [18.02, 49.598], [18.02, 49.596], [18.019, 49.595], [18.017, 49.595], [18.013, 49.596], [18.017, 49.597], [18.015, 49.598], [18.011, 49.597], [18.01, 49.599]]]}, "properties": {"kod": "8901", "cislo": 14, "kod_obec": "599191", "naz_obec": "Nový Jičín"}}, {"type": "Feature", "geometry": {"type": "Polygon", "coordinates": [[[18.017, 49.595], [18.019, 49.595], [18.021, 49.592], [18.016, 49.593], [18.018, 49.594], [18.017, 49.595]]]}, "properties": {"kod": "8903", "cislo": 15, "kod_obec": "599191", "naz_obec": "Nový Jičín"}}, {"type": "Feature", "geometry": {"type": "Polygon", "coordinates": [[[18.014, 49.594], [18.016, 49.593], [18.021, 49.592], [18.022, 49.589], [18.014, 49.593], [18.014, 49.594]]]}, "properties": {"kod": "8905", "cislo": 16, "kod_obec": "599191", "naz_obec": "Nový Jičín"}}, {"type": "Feature", "geometry": {"type": "Polygon", "coordinates": [[[18.024, 49.58], [18.031, 49.579], [18.035, 49.565], [18.036, 49.556], [18.03, 49.556], [18.022, 49.558], [18.015, 49.552], [18.01, 49.553], [18.009, 49.558], [18.006, 49.559], [18.004, 49.563], [17.999, 49.566], [18.003, 49.568], [18.002, 49.57], [18.01, 49.577], [18.017, 49.578], [18.024, 49.58]]]}, "properties": {"kod": "8907", "cislo": 17, "kod_obec": "599191", "naz_obec": "Nový Jičín"}}, {"type": "Feature", "geometry": {"type": "Polygon", "coordinates": [[[17.997, 49.572], [18.002, 49.57], [18.003, 49.568], [17.999, 49.566], [18.004, 49.563], [18.006, 49.559], [17.999, 49.559], [17.985, 49.554], [17.982, 49.556], [17.982, 49.558], [17.974, 49.563], [17.971, 49.567], [17.973, 49.568], [17.981, 49.567], [17.988, 49.569], [17.997, 49.572]]]}, "properties": {"kod": "8909", "cislo": 18, "kod_obec": "599191", "naz_obec": "Nový Jičín"}}, {"type": "Feature", "geometry": {"type": "Polygon", "coordinates": [[[17.994, 49.59], [17.996, 49.59], [18.005, 49.579], [18.006, 49.578], [17.997, 49.572], [17.988, 49.569], [17.976, 49.579], [17.976, 49.58], [17.968, 49.589], [17.987, 49.591], [17.987, 49.59], [17.99, 49.591], [17.991, 49.591], [17.99, 49.59], [17.994, 49.59]]]}, "properties": {"kod": "8911", "cislo": 19, "kod_obec": "599191", "naz_obec": "Nový Jičín"}}, {"type": "Feature", "geometry": {"type": "Polygon", "coordinates": [[[17.972, 49.607], [17.992, 49.594], [17.989, 49.593], [17.99, 49.591], [17.987, 49.59], [17.987, 49.591], [17.968, 49.589], [17.964, 49.59], [17.968, 49.592], [17.966, 49.595], [17.959, 49.598], [17.964, 49.601], [17.972, 49.607]]]}, "properties": {"kod": "8913", "cislo": 20, "kod_obec": "599191", "naz_obec": "Nový Jičín"}}, {"type": "Feature", "geometry": {"type": "Polygon", "coordinates": [[[17.999, 49.559], [18.006, 49.559], [18.009, 49.558], [18.01, 49.553], [18.015, 49.552], [18.016, 49.551], [18.015, 49.549], [18.001, 49.543], [17.973, 49.538], [17.968, 49.538], [17.967, 49.54], [17.964, 49.543], [17.972, 49.549], [17.982, 49.556], [17.985, 49.554], [17.999, 49.559]]]}, "properties": {"kod": "8915", "cislo": 21, "kod_obec": "599191", "naz_obec": "Nový Jičín"}}, {"type": "Feature", "geometry": {"type": "Polygon", "coordinates": [[[18.02, 49.596], [18.022, 49.596], [18.023, 49.594], [18.052, 49.601], [18.065, 49.588], [18.069, 49.576], [18.073, 49.576], [18.074, 49.571], [18.043, 49.569], [18.043, 49.567], [18.035, 49.565], [18.031, 49.579], [18.024, 49.58], [18.024, 49.586], [18.022, 49.589], [18.021, 49.592], [18.019, 49.595], [18.02, 49.596]]]}, "properties": {"kod": "8917", "cislo": 22, "kod_obec": "599191", "naz_obec": "Nový Jičín"}}]}