{"features":[{"geometry":{"type":"Polygon","coordinates":[[[17.99225333147882,49.59375132721977],[17.98856341209341,49.59268004956827],[17.989603618423487,49.59136669570054],[17.99107516221074,49.59092696229322],[17.989574997341332,49.58974567748957],[17.994095131490038,49.590322294091735],[17.996616518980396,49.59165171396509],[17.99770499443867,49.59199330543736],[17.997995784302898,49.59270407723599],[17.997014285401054,49.59395871239465],[17.99225333147882,49.59375132721977]]],"crs":null},"type":"Feature","properties":{"kod":8875,"naz_obec":"Nový Jičín","cislo":1,"kod_obec":"599191"}},{"geometry":{"type":"Polygon","coordinates":[[[17.971535904349583,49.60725237545043],[17.99225333147882,49.59375132721977],[17.997014285401054,49.59395871239465],[17.997995784302898,49.59270407723599],[18.000216716189993,49.593379035807764],[17.999660835543708,49.594821850005836],[17.994080289723577,49.59788704204738],[17.979981499937555,49.60526323124325],[17.972307806719584,49.60719455127163],[17.971535904349583,49.60725237545043]]],"crs":null},"type":"Feature","properties":{"kod":8877,"naz_obec":"Nový Jičín","cislo":2,"kod_obec":"599191"}},{"geometry":{"type":"Polygon","coordinates":[[[17.994080289723577,49.59788704204738],[17.999660835543708,49.594821850005836],[18.002128247765956,49.59524868257904],[18.000425934730156,49.59760517599479],[17.998527579926265,49.59820660981693],[17.994080289723577,49.59788704204738]]],"crs":null},"type":"Feature","properties":{"kod":8879,"naz_obec":"Nový Jičín","cislo":3,"kod_obec":"599191"}},{"geometry":{"type":"Polygon","coordinates":[[[18.000425934730156,49.59760517599479],[18.002128247765956,49.59524868257904],[17.999660835543708,49.594821850005836],[18.000216716189993,49.593379035807764],[17.997995784302898,49.59270407723599],[17.99770499443867,49.59199330543736],[18.004466847451354,49.59362274354195],[18.005725347770582,49.5955916513911],[18.006699443350435,49.59722895516768],[18.000425934730156,49.59760517599479]]],"crs":null},"type":"Feature","properties":{"kod":8881,"naz_obec":"Nový Jičín","cislo":4,"kod_obec":"599191"}},{"geometry":{"type":"Polygon","coordinates":[[[17.998527579926265,49.59820660981693],[18.000425934730156,49.59760517599479],[18.006699443350435,49.59722895516768],[18.005725347770582,49.5955916513911],[18.010344316333047,49.59858307008084],[18.00718199979177,49.59926358442937],[17.998527579926265,49.59820660981693]]],"crs":null},"type":"Feature","properties":{"kod":8883,"naz_obec":"Nový Jičín","cislo":5,"kod_obec":"599191"}},{"geometry":{"type":"Polygon","coordinates":[[[18.013241314942096,49.59490023720065],[18.009314915354757,49.59356098435076],[18.00780234273323,49.59543262951906],[18.004466847451354,49.59362274354195],[17.99770499443867,49.59199330543736],[17.996616518980396,49.59165171396509],[18.000731094075718,49.58963128671501],[18.004384596852713,49.591240526840046],[18.007182680763773,49.58898173395468],[18.005459074484467,49.58683863982821],[18.007646359668684,49.58879880374272],[18.007231615160393,49.58906410913537],[18.008666330660958,49.589756665024275],[18.011381599714884,49.59304788913715],[18.01365269266401,49.59299627611929],[18.01372276305212,49.594452823083884],[18.013241314942096,49.59490023720065]]],"crs":null},"type":"Feature","properties":{"kod":8885,"naz_obec":"Nový Jičín","cislo":6,"kod_obec":"599191"}},{"geometry":{"type":"Polygon","coordinates":[[[17.996616518980396,49.59165171396509],[17.994095131490038,49.590322294091735],[17.99606417115651,49.59042360279338],[18.005349552911166,49.579084380004744],[18.011096402356895,49.582467805956846],[18.010980825165777,49.58508739385245],[18.00790463635974,49.58575681442912],[18.00609284830892,49.58534951498023],[18.005459074484467,49.58683863982821],[18.007182680763773,49.58898173395468],[18.004384596852713,49.591240526840046],[18.000731094075718,49.58963128671501],[17.996616518980396,49.59165171396509]]],"crs":null},"type":"Feature","properties":{"kod":8887,"naz_obec":"Nový Jičín","cislo":7,"kod_obec":"599191"}},{"geometry":{"type":"MultiPolygon","coordinates":[[[[18.00790463635974,49.58575681442912],[18.010980825165777,49.58508739385245],[18.011096402356895,49.582467805956846],[18.005349552911166,49.579084380004744],[18.00641785995995,49.57822743614831],[17.997415605304223,49.57222201567862],[18.001596005042863,49.56988473277472],[18.01038192831442,49.57668258317529],[18.016622832142705,49.57836320685693],[18.013179422299462,49.58587492430232],[18.015823424117887,49.58978451113557],[18.00986346963545,49.59060185843479],[18.00748318178591,49.58844357281761],[18.00790463635974,49.58575681442912]]],[[[18.008666330660958,49.589756665024275],[18.007231615160393,49.58906410913537],[18.007646359668684,49.58879880374272],[18.008666330660958,49.589756665024275]]]],"crs":null},"type":"Feature","properties":{"kod":8889,"naz_obec":"Nový Jičín","cislo":8,"kod_obec":"599191"}},{"geometry":{"type":"Polygon","coordinates":[[[18.01365269266401,49.59299627611929],[18.011381599714884,49.59304788913715],[18.008666330660958,49.589756665024275],[18.007646359668684,49.58879880374272],[18.005459074484467,49.58683863982821],[18.00609284830892,49.58534951498023],[18.00790463635974,49.58575681442912],[18.00748318178591,49.58844357281761],[18.00986346963545,49.59060185843479],[18.015823424117887,49.58978451113557],[18.013179422299462,49.58587492430232],[18.016622832142705,49.57836320685693],[18.023573688869856,49.57955602245649],[18.024368091718554,49.586201198379335],[18.02201125615435,49.58862739962304],[18.01365269266401,49.59299627611929]]],"crs":null},"type":"Feature","properties":{"kod":8891,"naz_obec":"Nový Jičín","cislo":9,"kod_obec":"599191"}},{"geometry":{"type":"Polygon","coordinates":[[[18.005725347770582,49.5955916513911],[18.004466847451354,49.59362274354195],[18.00780234273323,49.59543262951906],[18.009314915354757,49.59356098435076],[18.013241314942096,49.59490023720065],[18.011400517412465,49.597177140055386],[18.010344316333047,49.59858307008084],[18.005725347770582,49.5955916513911]]],"crs":null},"type":"Feature","properties":{"kod":8893,"naz_obec":"Nový Jičín","cislo":10,"kod_obec":"599191"}},{"geometry":{"type":"Polygon","coordinates":[[[18.03099462857222,49.60766008364734],[18.00718199979177,49.59926358442937],[18.010344316333047,49.59858307008084],[18.01397580702666,49.5998984577109],[18.015173016216046,49.59902733147496],[18.01525229173883,49.60122282784931],[18.017961988871033,49.60278064996409],[18.01918740262234,49.600673591714454],[18.016388479408235,49.59982746022454],[18.019354658208407,49.599260529644255],[18.016815962105785,49.598839875211056],[18.020008164373394,49.59820426379848],[18.025398720712694,49.60156420534765],[18.028352363515282,49.59966158396645],[18.03124938396266,49.60010227966451],[18.03097688815093,49.60176371433543],[18.033574064560984,49.60250319294367],[18.031740849536202,49.604729897485484],[18.044154309022346,49.60727402957252],[18.042160291327423,49.608552881194626],[18.03099462857222,49.60766008364734]]],"crs":null},"type":"Feature","properties":{"kod":8895,"naz_obec":"Nový Jičín","cislo":11,"kod_obec":"599191"}},{"geometry":{"type":"Polygon","coordinates":[[[18.044154309022346,49.60727402957252],[18.031740849536202,49.604729897485484],[18.033574064560984,49.60250319294367],[18.03097688815093,49.60176371433543],[18.03124938396266,49.60010227966451],[18.028352363515282,49.59966158396645],[18.025398720712694,49.60156420534765],[18.020008164373394,49.59820426379848],[18.016815962105785,49.598839875211056],[18.019354658208407,49.599260529644255],[18.016388479408235,49.59982746022454],[18.01918740262234,49.600673591714454],[18.017961988871033,49.60278064996409],[18.01525229173883,49.60122282784931],[18.015173016216046,49.59902733147496],[18.01997890646252,49.59786206332883],[18.019702558190314,49.59634175026406],[18.022440979029774,49.59574258454221],[18.02306645960274,49.59359953343559],[18.05196508148042,49.60132365954741],[18.044757378103185,49.60707039173467],[18.044154309022346,49.60727402957252]]],"crs":null},"type":"Feature","properties":{"kod":8897,"naz_obec":"Nový Jičín","cislo":12,"kod_obec":"599191"}},{"geometry":{"type":"Polygon","coordinates":[[[18.011400517412465,49.597177140055386],[18.013241314942096,49.59490023720065],[18.01372276305212,49.594452823083884],[18.016164945657923,49.59333821212119],[18.01812244462245,49.59420993009062],[18.01718435731023,49.59519568717175],[18.012844793124636,49.59550568357309],[18.016717877024448,49.59690516827766],[18.015471004234467,49.59820907475106],[18.011400517412465,49.597177140055386]]],"crs":null},"type":"Feature","properties":{"kod":8899,"naz_obec":"Nový Jičín","cislo":13,"kod_obec":"599191"}},{"geometry":{"type":"Polygon","coordinates":[[[18.010344316333047,49.59858307008084],[18.011400517412465,49.597177140055386],[18.015471004234467,49.59820907475106],[18.016717877024448,49.59690516827766],[18.012844793124636,49.59550568357309],[18.01718435731023,49.59519568717175],[18.019338802295934,49.59542370934034],[18.019702558190314,49.59634175026406],[18.01997890646252,49.59786206332883],[18.015173016216046,49.59902733147496],[18.01397580702666,49.5998984577109],[18.010344316333047,49.59858307008084]]],"crs":null},"type":"Feature","properties":{"kod":8901,"naz_obec":"Nový Jičín","cislo":14,"kod_obec":"599191"}},{"geometry":{"type":"Polygon","coordinates":[[[18.01718435731023,49.59519568717175],[18.01812244462245,49.59420993009062],[18.016164945657923,49.59333821212119],[18.021066593843543,49.59247665651145],[18.019338802295934,49.59542370934034],[18.01718435731023,49.59519568717175]]],"crs":null},"type":"Feature","properties":{"kod":8903,"naz_obec":"Nový Jičín","cislo":15,"kod_obec":"599191"}},{"geometry":{"type":"Polygon","coordinates":[[[18.01372276305212,49.594452823083884],[18.01365269266401,49.59299627611929],[18.02201125615435,49.58862739962304],[18.021066593843543,49.59247665651145],[18.016164945657923,49.59333821212119],[18.01372276305212,49.594452823083884]]],"crs":null},"type":"Feature","properties":{"kod":8905,"naz_obec":"Nový Jičín","cislo":16,"kod_obec":"599191"}},{"geometry":{"type":"Polygon","coordinates":[[[18.023573688869856,49.57955602245649],[18.016622832142705,49.57836320685693],[18.01038192831442,49.57668258317529],[18.001596005042863,49.56988473277472],[18.003470638795932,49.56824784155149],[17.999430698774397,49.565619775218536],[18.004102665126087,49.56296702552315],[18.00589944047095,49.55932510895604],[18.008741555583907,49.55781368658001],[18.009734703766973,49.55321394887194],[18.014630241099486,49.5519253545557],[18.02227626381809,49.557856203408114],[18.03014716454151,49.55574779948564],[18.03616284491194,49.55599358952083],[18.0347122162032,49.564809087547566],[18.031018149181254,49.579134619201525],[18.023573688869856,49.57955602245649]]],"crs":null},"type":"Feature","properties":{"kod":8907,"naz_obec":"Nový Jičín","cislo":17,"kod_obec":"599191"}},{"geometry":{"type":"Polygon","coordinates":[[[17.997415605304223,49.57222201567862],[17.98825245397091,49.56945846497555],[17.981362929584645,49.566554351392945],[17.97344003162944,49.56798453283218],[17.971475335115773,49.56655171553649],[17.973981486063387,49.56306220981171],[17.98196566519971,49.55818686668578],[17.982307380840993,49.55620908546967],[17.985066932265838,49.55388712491484],[17.99881026971179,49.55886449799069],[18.00589944047095,49.55932510895604],[18.004102665126087,49.56296702552315],[17.999430698774397,49.565619775218536],[18.003470638795932,49.56824784155149],[18.001596005042863,49.56988473277472],[17.997415605304223,49.57222201567862]]],"crs":null},"type":"Feature","properties":{"kod":8909,"naz_obec":"Nový Jičín","cislo":18,"kod_obec":"599191"}},{"geometry":{"type":"Polygon","coordinates":[[[17.994095131490038,49.590322294091735],[17.989574997341332,49.58974567748957],[17.99107516221074,49.59092696229322],[17.989603618423487,49.59136669570054],[17.98693292904718,49.59000150483905],[17.986681680385317,49.59113307873383],[17.96772920544764,49.5887088431011],[17.976298588979855,49.58031024604551],[17.976103988830978,49.57854019903447],[17.98825245397091,49.56945846497555],[17.997415605304223,49.57222201567862],[18.00641785995995,49.57822743614831],[18.005349552911166,49.579084380004744],[17.99606417115651,49.59042360279338],[17.994095131490038,49.590322294091735]]],"crs":null},"type":"Feature","properties":{"kod":8911,"naz_obec":"Nový Jičín","cislo":19,"kod_obec":"599191"}},{"geometry":{"type":"Polygon","coordinates":[[[17.971535904349583,49.60725237545043],[17.96439445252375,49.600520703674036],[17.95915213606316,49.5981877717142],[17.965512242359388,49.59491242079241],[17.96773829314148,49.59183287740116],[17.9636524185209,49.58967053579629],[17.96772920544764,49.5887088431011],[17.986681680385317,49.59113307873383],[17.98693292904718,49.59000150483905],[17.989603618423487,49.59136669570054],[17.98856341209341,49.59268004956827],[17.99225333147882,49.59375132721977],[17.971535904349583,49.60725237545043]]],"crs":null},"type":"Feature","properties":{"kod":8913,"naz_obec":"Nový Jičín","cislo":20,"kod_obec":"599191"}},{"geometry":{"type":"Polygon","coordinates":[[[17.99881026971179,49.55886449799069],[17.985066932265838,49.55388712491484],[17.982307380840993,49.55620908546967],[17.9718246144002,49.5491602501537],[17.963978743107017,49.54252365502724],[17.967459400039914,49.54021697007627],[17.967577887887515,49.5378522793476],[17.973351085102806,49.537992922477294],[18.00105938286219,49.543126598678946],[18.015239696963224,49.5491162596779],[18.016497483177115,49.55135500002575],[18.014630241099486,49.5519253545557],[18.009734703766973,49.55321394887194],[18.008741555583907,49.55781368658001],[18.00589944047095,49.55932510895604],[17.99881026971179,49.55886449799069]]],"crs":null},"type":"Feature","properties":{"kod":8915,"naz_obec":"Nový Jičín","cislo":21,"kod_obec":"599191"}},{"geometry":{"type":"Polygon","coordinates":[[[18.019702558190314,49.59634175026406],[18.019338802295934,49.59542370934034],[18.021066593843543,49.59247665651145],[18.02201125615435,49.58862739962304],[18.024368091718554,49.586201198379335],[18.023573688869856,49.57955602245649],[18.031018149181254,49.579134619201525],[18.0347122162032,49.564809087547566],[18.043346943088572,49.56739813717025],[18.04341063144733,49.568693309471655],[18.073876694348087,49.571054760329936],[18.07342655842858,49.5758687348469],[18.068939196979965,49.57619872297017],[18.065369265310387,49.587988358810236],[18.05196508148042,49.60132365954741],[18.02306645960274,49.59359953343559],[18.022440979029774,49.59574258454221],[18.019702558190314,49.59634175026406]]],"crs":null},"type":"Feature","properties":{"kod":8917,"naz_obec":"Nový Jičín","cislo":22,"kod_obec":"599191"}}],"type":"FeatureCollection","properties":{"exceededTransferLimit":false}}