{"features":[{"geometry":{"type":"Polygon","coordinates":[[[18.431506752979722,49.87247273713021],[18.426282120131212,49.87244921513331],[18.424772621920827,49.87025532941019],[18.427539669695552,49.869927755268],[18.430196766765725,49.87074190406763],[18.431506752979722,49.87247273713021]]],"crs":null},"type":"Feature","properties":{"kod":2317,"naz_obec":"Orlová","cislo":15,"kod_obec":"599069"}},{"geometry":{"type":"Polygon","coordinates":[[[18.43366055527805,49.87257137401508],[18.432204913433395,49.87251098553077],[18.431506752979722,49.87247273713021],[18.430196766765725,49.87074190406763],[18.434448636513523,49.86864666315718],[18.43366055527805,49.87257137401508]]],"crs":null},"type":"Feature","properties":{"kod":2315,"naz_obec":"Orlová","cislo":14,"kod_obec":"599069"}},{"geometry":{"type":"Polygon","coordinates":[[[18.432204913433395,49.87251098553077],[18.42984628274812,49.875050537668926],[18.426282120131212,49.87244921513331],[18.431506752979722,49.87247273713021],[18.432204913433395,49.87251098553077]]],"crs":null},"type":"Feature","properties":{"kod":2319,"naz_obec":"Orlová","cislo":16,"kod_obec":"599069"}},{"geometry":{"type":"Polygon","coordinates":[[[18.44121870945446,49.858183867467396],[18.42587582900496,49.847954252419726],[18.425599716093167,49.84466624570623],[18.422202454899452,49.845451110375826],[18.410708600769325,49.83875044883681],[18.41437119642812,49.834673960647216],[18.41938982847615,49.83612443677238],[18.42248236343689,49.83026851946142],[18.432036500062345,49.836145225673846],[18.446047287575173,49.84077828805923],[18.44195550816433,49.84959116750197],[18.44121870945446,49.858183867467396]]],"crs":null},"type":"Feature","properties":{"kod":2293,"naz_obec":"Orlová","cislo":3,"kod_obec":"599069"}},{"geometry":{"type":"Polygon","coordinates":[[[18.39913724574433,49.85877329088063],[18.396666630551692,49.85726335712365],[18.401719728094804,49.85323057521332],[18.401014623244414,49.8460732302439],[18.405822464881552,49.84369227938248],[18.410708600769325,49.83875044883681],[18.422202454899452,49.845451110375826],[18.41939716546561,49.84494522118872],[18.410103258356827,49.85224451589921],[18.409875389502695,49.85617166859744],[18.403195780267104,49.857265163757404],[18.39913724574433,49.85877329088063]]],"crs":null},"type":"Feature","properties":{"kod":2295,"naz_obec":"Orlová","cislo":4,"kod_obec":"599069"}},{"geometry":{"type":"Polygon","coordinates":[[[18.422202454899452,49.845451110375826],[18.425599716093167,49.84466624570623],[18.42587582900496,49.847954252419726],[18.421620984744987,49.852670084122586],[18.42391150860072,49.854617724401756],[18.422306748569408,49.85619233394428],[18.409875389502695,49.85617166859744],[18.410103258356827,49.85224451589921],[18.41939716546561,49.84494522118872],[18.422202454899452,49.845451110375826]]],"crs":null},"type":"Feature","properties":{"kod":2297,"naz_obec":"Orlová","cislo":5,"kod_obec":"599069"}},{"geometry":{"type":"Polygon","coordinates":[[[18.403195780267104,49.857265163757404],[18.409875389502695,49.85617166859744],[18.422306748569408,49.85619233394428],[18.417715593622972,49.85874406428359],[18.41691700522144,49.866021875151404],[18.410251561822957,49.86637094067595],[18.403195780267104,49.857265163757404]]],"crs":null},"type":"Feature","properties":{"kod":2299,"naz_obec":"Orlová","cislo":6,"kod_obec":"599069"}},{"geometry":{"type":"Polygon","coordinates":[[[18.449962269100048,49.84335440808652],[18.446047287575173,49.84077828805923],[18.432036500062345,49.836145225673846],[18.42248236343689,49.83026851946142],[18.41938982847615,49.83612443677238],[18.41437119642812,49.834673960647216],[18.41532300626922,49.827206630987625],[18.418458536353587,49.82390447344706],[18.41514327104655,49.81314698360092],[18.41844547368067,49.81218783408047],[18.42168823394949,49.81410745772477],[18.429448473449163,49.813929301476655],[18.429167261455518,49.81619849666051],[18.434452535501787,49.81909555633865],[18.445772937627318,49.81912787773375],[18.452464527326534,49.81820272949791],[18.459108804583348,49.83362592030907],[18.449962269100048,49.84335440808652]]],"crs":null},"type":"Feature","properties":{"kod":2289,"naz_obec":"Orlová","cislo":1,"kod_obec":"599069"}},{"geometry":{"type":"Polygon","coordinates":[[[18.44873331815101,49.86028449575273],[18.4376403439092,49.861796551092375],[18.438177058031922,49.85813464639982],[18.44121870945446,49.858183867467396],[18.44195550816433,49.84959116750197],[18.446047287575173,49.84077828805923],[18.449962269100048,49.84335440808652],[18.45397175475587,49.84484593967297],[18.456350035568107,49.84713730029866],[18.454895272735847,49.85166220893067],[18.454426975206612,49.854781746275584],[18.44873331815101,49.86028449575273]]],"crs":null},"type":"Feature","properties":{"kod":2291,"naz_obec":"Orlová","cislo":2,"kod_obec":"599069"}},{"geometry":{"type":"Polygon","coordinates":[[[18.41691700522144,49.866021875151404],[18.417715593622972,49.85874406428359],[18.422306748569408,49.85619233394428],[18.427206827507696,49.86321928630077],[18.430079713732876,49.862686752775694],[18.42219644853116,49.86570319964172],[18.421004105660366,49.865797588243716],[18.41691700522144,49.866021875151404]]],"crs":null},"type":"Feature","properties":{"kod":2301,"naz_obec":"Orlová","cislo":7,"kod_obec":"599069"}},{"geometry":{"type":"Polygon","coordinates":[[[18.430079713732876,49.862686752775694],[18.427206827507696,49.86321928630077],[18.422306748569408,49.85619233394428],[18.42391150860072,49.854617724401756],[18.421620984744987,49.852670084122586],[18.42587582900496,49.847954252419726],[18.44121870945446,49.858183867467396],[18.438177058031922,49.85813464639982],[18.4376403439092,49.861796551092375],[18.431070524676414,49.86230836588004],[18.430079713732876,49.862686752775694]]],"crs":null},"type":"Feature","properties":{"kod":2303,"naz_obec":"Orlová","cislo":8,"kod_obec":"599069"}},{"geometry":{"type":"Polygon","coordinates":[[[18.436710983850332,49.87494501320719],[18.43366055527805,49.87257137401508],[18.434448636513523,49.86864666315718],[18.431070524676414,49.86230836588004],[18.4376403439092,49.861796551092375],[18.44873331815101,49.86028449575273],[18.451600165319572,49.862330563712476],[18.45270817880745,49.87216180022843],[18.448120669524968,49.873206947077236],[18.441956449173844,49.873936485046464],[18.436710983850332,49.87494501320719]]],"crs":null},"type":"Feature","properties":{"kod":2305,"naz_obec":"Orlová","cislo":9,"kod_obec":"599069"}},{"geometry":{"type":"Polygon","coordinates":[[[18.42780511149208,49.86722659552042],[18.423995720848826,49.867101248245085],[18.42193421973206,49.867325623664115],[18.42219644853116,49.86570319964172],[18.430079713732876,49.862686752775694],[18.431070524676414,49.86230836588004],[18.42780511149208,49.86722659552042]]],"crs":null},"type":"Feature","properties":{"kod":2307,"naz_obec":"Orlová","cislo":10,"kod_obec":"599069"}},{"geometry":{"type":"Polygon","coordinates":[[[18.423920364080125,49.86963751338602],[18.42274460361291,49.86879040850957],[18.42193421973206,49.867325623664115],[18.423995720848826,49.867101248245085],[18.423920364080125,49.86963751338602]]],"crs":null},"type":"Feature","properties":{"kod":2309,"naz_obec":"Orlová","cislo":11,"kod_obec":"599069"}},{"geometry":{"type":"Polygon","coordinates":[[[18.424772621920827,49.87025532941019],[18.424392339775004,49.869957748820774],[18.423920364080125,49.86963751338602],[18.423995720848826,49.867101248245085],[18.42780511149208,49.86722659552042],[18.430151224235544,49.868809515628],[18.427539669695552,49.869927755268],[18.424772621920827,49.87025532941019]]],"crs":null},"type":"Feature","properties":{"kod":2311,"naz_obec":"Orlová","cislo":12,"kod_obec":"599069"}},{"geometry":{"type":"Polygon","coordinates":[[[18.430196766765725,49.87074190406763],[18.427539669695552,49.869927755268],[18.430151224235544,49.868809515628],[18.42780511149208,49.86722659552042],[18.431070524676414,49.86230836588004],[18.434448636513523,49.86864666315718],[18.430196766765725,49.87074190406763]]],"crs":null},"type":"Feature","properties":{"kod":2313,"naz_obec":"Orlová","cislo":13,"kod_obec":"599069"}},{"geometry":{"type":"Polygon","coordinates":[[[18.436354172508064,49.876876363598136],[18.433190497504455,49.87592841910743],[18.4324113223299,49.87571997622609],[18.42984628274812,49.875050537668926],[18.432204913433395,49.87251098553077],[18.43366055527805,49.87257137401508],[18.436710983850332,49.87494501320719],[18.4364748502305,49.876762723800994],[18.436354172508064,49.876876363598136]]],"crs":null},"type":"Feature","properties":{"kod":2321,"naz_obec":"Orlová","cislo":17,"kod_obec":"599069"}},{"geometry":{"type":"Polygon","coordinates":[[[18.393150215898842,49.886987128761426],[18.393864065973105,49.88424405941002],[18.400562763139686,49.881240261127516],[18.402988656280844,49.87477750969701],[18.416517386931503,49.875903277004184],[18.417133363044474,49.87373131900662],[18.421157083422916,49.87390980239256],[18.42126202261452,49.875220763146295],[18.42734258310823,49.876472255379184],[18.427591256294267,49.87819290161087],[18.431743815268387,49.87956432451538],[18.43110499102877,49.885135787427814],[18.422683437360988,49.88771741388747],[18.404168018602967,49.885672375942725],[18.393150215898842,49.886987128761426]]],"crs":null},"type":"Feature","properties":{"kod":2323,"naz_obec":"Orlová","cislo":18,"kod_obec":"599069"}},{"geometry":{"type":"Polygon","coordinates":[[[18.431743815268387,49.87956432451538],[18.433190497504455,49.87592841910743],[18.436354172508064,49.876876363598136],[18.436425211189192,49.87913443336934],[18.438548909505187,49.88180085731181],[18.4389129883341,49.88417426532923],[18.43110499102877,49.885135787427814],[18.431743815268387,49.87956432451538]]],"crs":null},"type":"Feature","properties":{"kod":2325,"naz_obec":"Orlová","cislo":19,"kod_obec":"599069"}},{"geometry":{"type":"Polygon","coordinates":[[[18.427591256294267,49.87819290161087],[18.4324113223299,49.87571997622609],[18.433190497504455,49.87592841910743],[18.431743815268387,49.87956432451538],[18.427591256294267,49.87819290161087]]],"crs":null},"type":"Feature","properties":{"kod":2327,"naz_obec":"Orlová","cislo":20,"kod_obec":"599069"}},{"geometry":{"type":"Polygon","coordinates":[[[18.42734258310823,49.876472255379184],[18.42984628274812,49.875050537668926],[18.4324113223299,49.87571997622609],[18.427591256294267,49.87819290161087],[18.42734258310823,49.876472255379184]]],"crs":null},"type":"Feature","properties":{"kod":2329,"naz_obec":"Orlová","cislo":21,"kod_obec":"599069"}},{"geometry":{"type":"Polygon","coordinates":[[[18.421157083422916,49.87390980239256],[18.420881039277774,49.87207071817845],[18.424392339775004,49.869957748820774],[18.424772621920827,49.87025532941019],[18.426282120131212,49.87244921513331],[18.42984628274812,49.875050537668926],[18.42734258310823,49.876472255379184],[18.42126202261452,49.875220763146295],[18.421157083422916,49.87390980239256]]],"crs":null},"type":"Feature","properties":{"kod":2331,"naz_obec":"Orlová","cislo":22,"kod_obec":"599069"}},{"geometry":{"type":"Polygon","coordinates":[[[18.402988656280844,49.87477750969701],[18.408922641682164,49.866616755135404],[18.410251561822957,49.86637094067595],[18.41691700522144,49.866021875151404],[18.421004105660366,49.865797588243716],[18.421356453786185,49.869225947598764],[18.417809749879243,49.87036850785427],[18.417133363044474,49.87373131900662],[18.416517386931503,49.875903277004184],[18.402988656280844,49.87477750969701]]],"crs":null},"type":"Feature","properties":{"kod":2333,"naz_obec":"Orlová","cislo":23,"kod_obec":"599069"}},{"geometry":{"type":"Polygon","coordinates":[[[18.42274460361291,49.86879040850957],[18.421356453786185,49.869225947598764],[18.421004105660366,49.865797588243716],[18.42219644853116,49.86570319964172],[18.42193421973206,49.867325623664115],[18.42274460361291,49.86879040850957]]],"crs":null},"type":"Feature","properties":{"kod":2335,"naz_obec":"Orlová","cislo":24,"kod_obec":"599069"}},{"geometry":{"type":"Polygon","coordinates":[[[18.421356453786185,49.869225947598764],[18.42274460361291,49.86879040850957],[18.423920364080125,49.86963751338602],[18.424392339775004,49.869957748820774],[18.420881039277774,49.87207071817845],[18.421157083422916,49.87390980239256],[18.417133363044474,49.87373131900662],[18.417809749879243,49.87036850785427],[18.421356453786185,49.869225947598764]]],"crs":null},"type":"Feature","properties":{"kod":2337,"naz_obec":"Orlová","cislo":25,"kod_obec":"599069"}},{"geometry":{"type":"Polygon","coordinates":[[[18.436354172508064,49.876876363598136],[18.439619362500355,49.87722760471539],[18.439242143229887,49.877409923972216],[18.436425211189192,49.87913443336934],[18.436354172508064,49.876876363598136]]],"crs":null},"type":"Feature","properties":{"kod":2339,"naz_obec":"Orlová","cislo":26,"kod_obec":"599069"}},{"geometry":{"type":"Polygon","coordinates":[[[18.436425211189192,49.87913443336934],[18.439242143229887,49.877409923972216],[18.440300965532348,49.87809633253232],[18.44078536826576,49.88038837009108],[18.441164948754825,49.87812354924586],[18.44286413747582,49.876038755569084],[18.440592411215196,49.87484835708531],[18.4364748502305,49.876762723800994],[18.436710983850332,49.87494501320719],[18.441956449173844,49.873936485046464],[18.445884654326818,49.88017690763979],[18.438548909505187,49.88180085731181],[18.436425211189192,49.87913443336934]]],"crs":null},"type":"Feature","properties":{"kod":2341,"naz_obec":"Orlová","cislo":27,"kod_obec":"599069"}},{"geometry":{"type":"Polygon","coordinates":[[[18.440300965532348,49.87809633253232],[18.44081945626734,49.878085568032894],[18.441164948754825,49.87812354924586],[18.44078536826576,49.88038837009108],[18.440300965532348,49.87809633253232]]],"crs":null},"type":"Feature","properties":{"kod":2343,"naz_obec":"Orlová","cislo":28,"kod_obec":"599069"}},{"geometry":{"type":"Polygon","coordinates":[[[18.436354172508064,49.876876363598136],[18.4364748502305,49.876762723800994],[18.440592411215196,49.87484835708531],[18.439619362500355,49.87722760471539],[18.436354172508064,49.876876363598136]]],"crs":null},"type":"Feature","properties":{"kod":2345,"naz_obec":"Orlová","cislo":29,"kod_obec":"599069"}},{"geometry":{"type":"Polygon","coordinates":[[[18.439242143229887,49.877409923972216],[18.439619362500355,49.87722760471539],[18.440592411215196,49.87484835708531],[18.44286413747582,49.876038755569084],[18.441164948754825,49.87812354924586],[18.44081945626734,49.878085568032894],[18.440300965532348,49.87809633253232],[18.439242143229887,49.877409923972216]]],"crs":null},"type":"Feature","properties":{"kod":2347,"naz_obec":"Orlová","cislo":30,"kod_obec":"599069"}}],"type":"FeatureCollection","properties":{"exceededTransferLimit":false}}