{"type": "FeatureCollection", "features": [{"type": "Feature", "geometry": {"type": "Polygon", "coordinates": [[[18.45, 49.843], [18.459, 49.834], [18.452, 49.818], [18.446, 49.819], [18.434, 49.819], [18.429, 49.816], [18.429, 49.814], [18.422, 49.814], [18.418, 49.812], [18.415, 49.813], [18.418, 49.824], [18.415, 49.827], [18.414, 49.835], [18.419, 49.836], [18.422, 49.83], [18.432, 49.836], [18.446, 49.841], [18.45, 49.843]]]}, "properties": {"kod": "2289", "cislo": 1, "kod_obec": "599069", "naz_obec": "Orlová"}}, {"type": "Feature", "geometry": {"type": "Polygon", "coordinates": [[[18.449, 49.86], [18.454, 49.855], [18.455, 49.852], [18.456, 49.847], [18.454, 49.845], [18.45, 49.843], [18.446, 49.841], [18.442, 49.85], [18.441, 49.858], [18.438, 49.858], [18.438, 49.862], [18.449, 49.86]]]}, "properties": {"kod": "2291", "cislo": 2, "kod_obec": "599069", "naz_obec": "Orlová"}}, {"type": "Feature", "geometry": {"type": "Polygon", "coordinates": [[[18.441, 49.858], [18.442, 49.85], [18.446, 49.841], [18.432, 49.836], [18.422, 49.83], [18.419, 49.836], [18.414, 49.835], [18.411, 49.839], [18.422, 49.845], [18.426, 49.845], [18.426, 49.848], [18.441, 49.858]]]}, "properties": {"kod": "2293", "cislo": 3, "kod_obec": "599069", "naz_obec": "Orlová"}}, {"type": "Feature", "geometry": {"type": "Polygon", "coordinates": [[[18.399, 49.859], [18.403, 49.857], [18.41, 49.856], [18.41, 49.852], [18.419, 49.845], [18.422, 49.845], [18.411, 49.839], [18.406, 49.844], [18.401, 49.846], [18.402, 49.853], [18.397, 49.857], [18.399, 49.859]]]}, "properties": {"kod": "2295", "cislo": 4, "kod_obec": "599069", "naz_obec": "Orlová"}}, {"type": "Feature", "geometry": {"type": "Polygon", "coordinates": [[[18.422, 49.845], [18.419, 49.845], [18.41, 49.852], [18.41, 49.856], [18.422, 49.856], [18.424, 49.855], [18.422, 49.853], [18.426, 49.848], [18.426, 49.845], [18.422, 49.845]]]}, "properties": {"kod": "2297", "cislo": 5, "kod_obec": "599069", "naz_obec": "Orlová"}}, {"type": "Feature", "geometry": {"type": "Polygon", "coordinates": [[[18.403, 49.857], [18.41, 49.866], [18.417, 49.866], [18.418, 49.859], [18.422, 49.856], [18.41, 49.856], [18.403, 49.857]]]}, "properties": {"kod": "2299", "cislo": 6, "kod_obec": "599069", "naz_obec": "Orlová"}}, {"type": "Feature", "geometry": {"type": "Polygon", "coordinates": [[[18.417, 49.866], [18.421, 49.866], [18.422, 49.866], [18.43, 49.863], [18.427, 49.863], [18.422, 49.856], [18.418, 49.859], [18.417, 49.866]]]}, "properties": {"kod": "2301", "cislo": 7, "kod_obec": "599069", "naz_obec": "Orlová"}}, {"type": "Feature", "geometry": {"type": "Polygon", "coordinates": [[[18.43, 49.863], [18.431, 49.862], [18.438, 49.862], [18.438, 49.858], [18.441, 49.858], [18.426, 49.848], [18.422, 49.853], [18.424, 49.855], [18.422, 49.856], [18.427, 49.863], [18.43, 49.863]]]}, "properties": {"kod": "2303", "cislo": 8, "kod_obec": "599069", "naz_obec": "Orlová"}}, {"type": "Feature", "geometry": {"type": "Polygon", "coordinates": [[[18.437, 49.875], [18.442, 49.874], [18.448, 49.873], [18.453, 49.872], [18.452, 49.862], [18.449, 49.86], [18.438, 49.862], [18.431, 49.862], [18.434, 49.869], [18.434, 49.873], [18.437, 49.875]]]}, "properties": {"kod": "2305", "cislo": 9, "kod_obec": "599069", "naz_obec": "Orlová"}}, {"type": "Feature", "geometry": {"type": "Polygon", "coordinates": [[[18.428, 49.867], [18.431, 49.862], [18.43, 49.863], [18.422, 49.866], [18.422, 49.867], [18.424, 49.867], [18.428, 49.867]]]}, "properties": {"kod": "2307", "cislo": 10, "kod_obec": "599069", "naz_obec": "Orlová"}}, {"type": "Feature", "geometry": {"type": "Polygon", "coordinates": [[[18.424, 49.87], [18.424, 49.867], [18.422, 49.867], [18.423, 49.869], [18.424, 49.87]]]}, "properties": {"kod": "2309", "cislo": 11, "kod_obec": "599069", "naz_obec": "Orlová"}}, {"type": "Feature", "geometry": {"type": "Polygon", "coordinates": [[[18.425, 49.87], [18.428, 49.87], [18.43, 49.869], [18.428, 49.867], [18.424, 49.867], [18.424, 49.87], [18.424, 49.87], [18.425, 49.87]]]}, "properties": {"kod": "2311", "cislo": 12, "kod_obec": "599069", "naz_obec": "Orlová"}}, {"type": "Feature", "geometry": {"type": "Polygon", "coordinates": [[[18.43, 49.871], [18.434, 49.869], [18.431, 49.862], [18.428, 49.867], [18.43, 49.869], [18.428, 49.87], [18.43, 49.871]]]}, "properties": {"kod": "2313", "cislo": 13, "kod_obec": "599069", "naz_obec": "Orlová"}}, {"type": "Feature", "geometry": {"type": "Polygon", "coordinates": [[[18.434, 49.873], [18.434, 49.869], [18.43, 49.871], [18.432, 49.872], [18.432, 49.873], [18.434, 49.873]]]}, "properties": {"kod": "2315", "cislo": 14, "kod_obec": "599069", "naz_obec": "Orlová"}}, {"type": "Feature", "geometry": {"type": "Polygon", "coordinates": [[[18.432, 49.872], [18.43, 49.871], [18.428, 49.87], [18.425, 49.87], [18.426, 49.872], [18.432, 49.872]]]}, "properties": {"kod": "2317", "cislo": 15, "kod_obec": "599069", "naz_obec": "Orlová"}}, {"type": "Feature", "geometry": {"type": "Polygon", "coordinates": [[[18.432, 49.873], [18.432, 49.872], [18.426, 49.872], [18.43, 49.875], [18.432, 49.873]]]}, "properties": {"kod": "2319", "cislo": 16, "kod_obec": "599069", "naz_obec": "Orlová"}}, {"type": "Feature", "geometry": {"type": "Polygon", "coordinates": [[[18.436, 49.877], [18.436, 49.877], [18.437, 49.875], [18.434, 49.873], [18.432, 49.873], [18.43, 49.875], [18.432, 49.876], [18.433, 49.876], [18.436, 49.877]]]}, "properties": {"kod": "2321", "cislo": 17, "kod_obec": "599069", "naz_obec": "Orlová"}}, {"type": "Feature", "geometry": {"type": "Polygon", "coordinates": [[[18.393, 49.887], [18.404, 49.886], [18.423, 49.888], [18.431, 49.885], [18.432, 49.88], [18.428, 49.878], [18.427, 49.876], [18.421, 49.875], [18.421, 49.874], [18.417, 49.874], [18.417, 49.876], [18.403, 49.875], [18.401, 49.881], [18.394, 49.884], [18.393, 49.887]]]}, "properties": {"kod": "2323", "cislo": 18, "kod_obec": "599069", "naz_obec": "Orlová"}}, {"type": "Feature", "geometry": {"type": "Polygon", "coordinates": [[[18.432, 49.88], [18.431, 49.885], [18.439, 49.884], [18.439, 49.882], [18.436, 49.879], [18.436, 49.877], [18.433, 49.876], [18.432, 49.88]]]}, "properties": {"kod": "2325", "cislo": 19, "kod_obec": "599069", "naz_obec": "Orlová"}}, {"type": "Feature", "geometry": {"type": "Polygon", "coordinates": [[[18.428, 49.878], [18.432, 49.88], [18.433, 49.876], [18.432, 49.876], [18.428, 49.878]]]}, "properties": {"kod": "2327", "cislo": 20, "kod_obec": "599069", "naz_obec": "Orlová"}}, {"type": "Feature", "geometry": {"type": "Polygon", "coordinates": [[[18.427, 49.876], [18.428, 49.878], [18.432, 49.876], [18.43, 49.875], [18.427, 49.876]]]}, "properties": {"kod": "2329", "cislo": 21, "kod_obec": "599069", "naz_obec": "Orlová"}}, {"type": "Feature", "geometry": {"type": "Polygon", "coordinates": [[[18.421, 49.874], [18.421, 49.875], [18.427, 49.876], [18.43, 49.875], [18.426, 49.872], [18.425, 49.87], [18.424, 49.87], [18.421, 49.872], [18.421, 49.874]]]}, "properties": {"kod": "2331", "cislo": 22, "kod_obec": "599069", "naz_obec": "Orlová"}}, {"type": "Feature", "geometry": {"type": "Polygon", "coordinates": [[[18.403, 49.875], [18.417, 49.876], [18.417, 49.874], [18.418, 49.87], [18.421, 49.869], [18.421, 49.866], [18.417, 49.866], [18.41, 49.866], [18.409, 49.867], [18.403, 49.875]]]}, "properties": {"kod": "2333", "cislo": 23, "kod_obec": "599069", "naz_obec": "Orlová"}}, {"type": "Feature", "geometry": {"type": "Polygon", "coordinates": [[[18.423, 49.869], [18.422, 49.867], [18.422, 49.866], [18.421, 49.866], [18.421, 49.869], [18.423, 49.869]]]}, "properties": {"kod": "2335", "cislo": 24, "kod_obec": "599069", "naz_obec": "Orlová"}}, {"type": "Feature", "geometry": {"type": "Polygon", "coordinates": [[[18.421, 49.869], [18.418, 49.87], [18.417, 49.874], [18.421, 49.874], [18.421, 49.872], [18.424, 49.87], [18.424, 49.87], [18.423, 49.869], [18.421, 49.869]]]}, "properties": {"kod": "2337", "cislo": 25, "kod_obec": "599069", "naz_obec": "Orlová"}}, {"type": "Feature", "geometry": {"type": "Polygon", "coordinates": [[[18.436, 49.877], [18.436, 49.879], [18.439, 49.877], [18.44, 49.877], [18.436, 49.877]]]}, "properties": {"kod": "2339", "cislo": 26, "kod_obec": "599069", "naz_obec": "Orlová"}}, {"type": "Feature", "geometry": {"type": "Polygon", "coordinates": [[[18.436, 49.879], [18.439, 49.882], [18.446, 49.88], [18.442, 49.874], [18.437, 49.875], [18.436, 49.877], [18.441, 49.875], [18.443, 49.876], [18.441, 49.878], [18.441, 49.88], [18.44, 49.878], [18.439, 49.877], [18.436, 49.879]]]}, "properties": {"kod": "2341", "cislo": 27, "kod_obec": "599069", "naz_obec": "Orlová"}}, {"type": "Feature", "geometry": {"type": "Polygon", "coordinates": [[[18.44, 49.878], [18.441, 49.88], [18.441, 49.878], [18.441, 49.878], [18.44, 49.878]]]}, "properties": {"kod": "2343", "cislo": 28, "kod_obec": "599069", "naz_obec": "Orlová"}}, {"type": "Feature", "geometry": {"type": "Polygon", "coordinates": [[[18.436, 49.877], [18.44, 49.877], [18.441, 49.875], [18.436, 49.877], [18.436, 49.877]]]}, "properties": {"kod": "2345", "cislo": 29, "kod_obec": "599069", "naz_obec": "Orlová"}}, {"type": "Feature", "geometry": {"type": "Polygon", "coordinates": [[[18.439, 49.877], [18.44, 49.878], [18.441, 49.878], [18.441, 49.878], [18.443, 49.876], [18.441, 49.875], [18.44, 49.877], [18.439, 49.877]]]}, "properties": {"kod": "2347", "cislo": 30, "kod_obec": "599069", "naz_obec": "Orlová"}}]}