{"features":[{"geometry":{"type":"Polygon","coordinates":[[[18.078374016616998,49.67878234677963],[18.08291707216686,49.672629882221685],[18.077313262924406,49.669622815886655],[18.079154549822253,49.668205998824675],[18.07653883959695,49.666582700728085],[18.07852670298037,49.66553554753954],[18.06930757020798,49.659644661176166],[18.071098133122813,49.65809832655454],[18.06157652522762,49.652151914349325],[18.06545468842892,49.642294154069056],[18.069864764479536,49.641045666039645],[18.076617031417843,49.643254712181694],[18.075882445573953,49.639780850334525],[18.08318807947757,49.64280479742817],[18.084622655863182,49.64110879364758],[18.087111501672382,49.64117391341382],[18.07858943483457,49.63711793376682],[18.085092716366912,49.63669403423781],[18.091255098824046,49.63141343566804],[18.087107870066504,49.62732072643443],[18.08954403758037,49.62491286342452],[18.103304943537882,49.62746370178555],[18.099933504207538,49.638735972500854],[18.09717982678174,49.6412413937007],[18.1010062027478,49.64257256845551],[18.099667063875682,49.64369680710908],[18.09851310198384,49.64583344786783],[18.09465111174441,49.644885579906656],[18.094153315765222,49.645839908203904],[18.106899247238747,49.65031658873478],[18.120282050729628,49.658542850040305],[18.11494731734562,49.65991969135662],[18.121273615217387,49.66246654443935],[18.11622340317857,49.66653775819273],[18.119987409145068,49.66942289439035],[18.117235905741843,49.675423354223824],[18.110481225886154,49.67270884511432],[18.099677293200003,49.679711558559134],[18.094577296443465,49.67695251678475],[18.08410960213574,49.67860926114482],[18.077025828295994,49.68550664505273],[18.078374016616998,49.67878234677963]]],"crs":null},"type":"Feature","properties":{"kod":7009,"naz_obec":"Sedlnice","cislo":1,"kod_obec":"599832"}}],"type":"FeatureCollection","properties":{"exceededTransferLimit":false}}