{"type": "FeatureCollection", "features": [{"type": "Feature", "geometry": {"type": "Polygon", "coordinates": [[[18.078, 49.679], [18.077, 49.686], [18.084, 49.679], [18.095, 49.677], [18.1, 49.68], [18.11, 49.673], [18.117, 49.675], [18.12, 49.669], [18.116, 49.667], [18.121, 49.662], [18.115, 49.66], [18.12, 49.659], [18.107, 49.65], [18.094, 49.646], [18.095, 49.645], [18.099, 49.646], [18.1, 49.644], [18.101, 49.643], [18.097, 49.641], [18.1, 49.639], [18.103, 49.627], [18.09, 49.625], [18.087, 49.627], [18.091, 49.631], [18.085, 49.637], [18.079, 49.637], [18.087, 49.641], [18.085, 49.641], [18.083, 49.643], [18.076, 49.64], [18.077, 49.643], [18.07, 49.641], [18.065, 49.642], [18.062, 49.652], [18.071, 49.658], [18.069, 49.66], [18.079, 49.666], [18.077, 49.667], [18.079, 49.668], [18.077, 49.67], [18.083, 49.673], [18.078, 49.679]]]}, "properties": {"kod": "7009", "cislo": 1, "kod_obec": "599832", "naz_obec": "Sedlnice"}}]}